{"type": "FeatureCollection", "features": [{"type": "Feature", "geometry": {"type": "Polygon", "coordinates": [[[-63.04764521194081, 46.42677555830702], [-63.046574450005146, 46.424707337880726], [-63.04108606470275, 46.415111613909545], [-63.03929086329665, 46.41197202552466], [-63.0364821241263, 46.41006927903897], [-63.017852902513766, 46.40510547858762], [-63.00410856790214, 46.40130655492792], [-62.999999996772424, 46.39772917349401], [-62.996932709294384, 46.395057976902095], [-62.992160670874824, 46.38607253811226], [-62.99709815071936, 46.38560672793045], [-63.00609777310143, 46.384757037932125], [-63.01013730459534, 46.38437533282371], [-63.01471396106786, 46.383942665980605], [-63.02064633849789, 46.383381479661395], [-63.026728020727965, 46.38280574300063], [-63.03854832425651, 46.38168150835892], [-63.03846629291616, 46.38152790190747], [-63.038454811552995, 46.38150519783249], [-63.03829709716555, 46.38119500564334], [-63.03789342137183, 46.380457093851014], [-63.036955906366984, 46.37864850576093], [-63.03691689932826, 46.37855849289845], [-63.0368126059584, 46.37818960988663], [-63.0367211956934, 46.37766761052425], [-63.03672120267653, 46.37760460656666], [-63.03636238519481, 46.37535240592588], [-63.036120479707314, 46.37383390659088], [-63.03586598598165, 46.37194359838264], [-63.035646256315715, 46.37031098668406], [-63.03563710837127, 46.37024311582643], [-63.03528438513921, 46.367597297925734], [-63.0352583011999, 46.36750728692403], [-63.03515390005201, 46.366832397765165], [-63.03510171763749, 46.366652399160664], [-63.035088705210015, 46.366553392016115], [-63.03493230356782, 46.36599548841279], [-63.03335618375307, 46.361010095736255], [-63.03322589926891, 46.36049710789417], [-63.033199804442674, 46.36029909892796], [-63.03318659543009, 46.3599840953869], [-63.03321241272021, 46.3595882024834], [-63.0333160113785, 46.35903010084218], [-63.03352349657833, 46.35814811146822], [-63.03358831004505, 46.357950113149904], [-63.033653101158066, 46.35754508762874], [-63.033665903662296, 46.35723908814254], [-63.033639792708684, 46.35704110492236], [-63.03358768733745, 46.35684309197366], [-63.03345750605872, 46.356555205425956], [-63.03323631111259, 46.35618620140116], [-63.03184941841402, 46.35417169387947], [-63.03141498282772, 46.35354080776078], [-63.03119390638145, 46.353180909777116], [-63.03098579797127, 46.35291988889866], [-63.03090770521605, 46.352847989454176], [-63.03063461491624, 46.352533006928425], [-63.03027049026841, 46.35223609036278], [-63.02915238242472, 46.3514625066045], [-63.02891828761945, 46.35127349849822], [-63.02860630625127, 46.351012599081685], [-63.02808599215671, 46.350364694425075], [-63.02792989585343, 46.350094796527216], [-63.027812791382104, 46.34981579948628], [-63.02725340022212, 46.348682006537935], [-63.027175313221456, 46.34849300398233], [-63.026967212232805, 46.34810610152061], [-63.0260303860899, 46.345910293654036], [-63.02571819910163, 46.34525341333689], [-63.0247556904394, 46.343282710758], [-63.02410529045011, 46.34190579481944], [-63.023442002182954, 46.34056501224331], [-63.02292179320191, 46.33962909537818], [-63.02264868962953, 46.339071206690654], [-63.0226055129123, 46.33895890496118], [-63.02254471420875, 46.33880120759323], [-63.02250558239257, 46.338612196482664], [-63.022440616168566, 46.338414295314], [-63.02238850043052, 46.33820729990843], [-63.02237541716369, 46.33800030270239], [-63.02196988493853, 46.336800880768564], [-63.02181610643391, 46.33649741279212], [-63.021720693481114, 46.33638862843396], [-63.02161720171556, 46.336270612822865], [-63.02159510270622, 46.336245507540625], [-63.02149108762824, 46.336173492264386], [-63.02123120404686, 46.33593048851615], [-63.02111420847803, 46.33584060203568], [-63.02093219460896, 46.33565159624147], [-63.02058120155403, 46.33520168975022], [-63.02046421978729, 46.33501269304389], [-63.019332887190494, 46.332493006852594], [-63.01913787754615, 46.33208800383541], [-63.01904690619081, 46.33193498806167], [-63.0189167920141, 46.33146700579396], [-63.018877700152736, 46.33125111317372], [-63.01887748055594, 46.330423102050624], [-63.01885140204432, 46.33022509229763], [-63.01882540683514, 46.33012611000395], [-63.018591387398075, 46.32960409832428], [-63.018487411208895, 46.32943320173543], [-63.01827939176392, 46.32919018644235], [-63.01736968490126, 46.32829030715744], [-63.017213794968086, 46.328119409092665], [-63.017070820218635, 46.32792139888095], [-63.0162263974639, 46.32817349013512], [-63.015446998657254, 46.328434613197565], [-63.01535611533015, 46.32847959306537], [-63.01505729578865, 46.32856969684588], [-63.01466761906322, 46.3287407018144], [-63.013717450822156, 46.326232659625006], [-63.00194538258262, 46.328172904047584], [-63.00134748624, 46.327928201790435], [-63.00124990961055, 46.32787829026356], [-63.00116870009095, 46.32783690685198], [-63.0010143835627, 46.32773300840277], [-63.00094789726302, 46.32767680301919], [-63.00083578410796, 46.327549494510954], [-63.00065509262444, 46.32725769197485], [-62.998389051129344, 46.32760115372823], [-62.99648099128834, 46.32376113099493], [-62.994797893733, 46.322930346743235], [-62.9923371859643, 46.32298899893591], [-62.990636130849566, 46.32304251243132], [-62.98820228587475, 46.32284823718322], [-62.98642120889581, 46.3215126527393], [-62.985950859012014, 46.32046310231486], [-62.98669294821199, 46.31919492182101], [-62.987357320664856, 46.31889574935829], [-62.98779846975777, 46.31784013221698], [-62.98933421634781, 46.31684037740581], [-62.98980360787409, 46.315637169812874], [-62.98872269532375, 46.31438120758658], [-62.98807799185354, 46.31390127401597], [-62.98915642632144, 46.31279931527326], [-62.99008292072846, 46.311698365651935], [-62.99025142432994, 46.31070774852826], [-62.989789882141196, 46.30946335310044], [-62.99420848664236, 46.30848625606443], [-63.000000000578886, 46.30720519461393], [-63.00042529013895, 46.30711108124974], [-63.0022653124038, 46.30709855206667], [-63.004366809699974, 46.306063953535784], [-63.00497126981827, 46.30575844033611], [-63.01076080673425, 46.30283177220756], [-63.020345367137026, 46.29766394431635], [-63.025311118435035, 46.29576515208315], [-63.02629122826635, 46.29539034518204], [-63.02957938076073, 46.2935658656057], [-63.03727520002199, 46.28905508429767], [-63.0443547750059, 46.28490419730493], [-63.05400817315453, 46.279242194616415], [-63.05542513227782, 46.27818380201756], [-63.06505152962302, 46.270991609289204], [-63.07368023227371, 46.26454213372872], [-63.079391382677095, 46.26022622067958], [-63.08192202656321, 46.25831346243776], [-63.08274626768723, 46.25769043843415], [-63.08537134942636, 46.25488316249314], [-63.08977869972944, 46.250168999976026], [-63.08986720121183, 46.25007848681192], [-63.089882332506534, 46.250062992982784], [-63.093890509026714, 46.245962279905655], [-63.09598604796002, 46.24381800164662], [-63.099596340112896, 46.240123217769906], [-63.10102751843494, 46.23865833214725], [-63.104721414363475, 46.236242493065646], [-63.10476595127282, 46.2362133545994], [-63.1090694689699, 46.233398297707744], [-63.11030522250906, 46.23292118986495], [-63.11033026274008, 46.23291152335007], [-63.11598535910348, 46.230727846760026], [-63.11731226154724, 46.23021537906432], [-63.118878462353784, 46.22912957826852], [-63.119915157506306, 46.22841084229036], [-63.120824727847754, 46.2277801845311], [-63.12146624989761, 46.22733862697763], [-63.12533849781228, 46.22467316213093], [-63.125868258786404, 46.22431452370974], [-63.13003724177761, 46.221491992220535], [-63.130995053965776, 46.22084345616104], [-63.13634820618862, 46.217143511642824], [-63.138115727559395, 46.2154658089582], [-63.1446779260292, 46.210901885839185], [-63.144331816062866, 46.21069036710578], [-63.13630361483738, 46.20622512839831], [-63.13238801299733, 46.202607143918435], [-63.127988908210924, 46.198541570961176], [-63.127886255464155, 46.19844668977463], [-63.12376865247421, 46.19283054226953], [-63.12292509583014, 46.19167984007445], [-63.12198083091491, 46.18776345797702], [-63.12000379813227, 46.17812484604659], [-63.112600877233234, 46.14199942355357], [-63.10913823201169, 46.125083447205306], [-63.1022331314792, 46.09131497805412], [-63.099721130400766, 46.07901866728322], [-63.116064043286144, 46.056341775104045], [-63.13295086616753, 46.03288502452601], [-63.14620593277519, 46.01520892456109], [-63.14620915001361, 46.01520465142487], [-63.14597468899257, 46.01513544702347], [-63.132503195032726, 46.011157663963175], [-63.104856306606145, 46.003128338742776], [-63.10028705709771, 46.000082242632686], [-63.100283763549875, 46.000080055125466], [-63.09204332482718, 45.994585044906785], [-63.09185915515351, 45.99446221103802], [-63.09167498650041, 45.99433937686353], [-63.08670443151949, 45.99102379307997], [-63.05891437417843, 45.9723333043096], [-63.04000451869833, 45.956487239049544], [-63.03984163414948, 45.956350673026876], [-63.03967875060347, 45.95621410679494], [-63.02837463246273, 45.946734620721244], [-63.0000000061174, 45.927716358827276], [-62.972767272669664, 45.90944132675483], [-62.97258389866914, 45.90931819540847], [-62.97240055834584, 45.90919507489307], [-62.970232490808854, 45.90773919480346], [-62.95076839567903, 45.90021500636607], [-62.950545881251024, 45.900128937758176], [-62.95032336768554, 45.90004286863934], [-62.92332986189173, 45.88959716506792], [-62.92310745384088, 45.88951103346697], [-62.922885046652596, 45.88942490135555], [-62.912010538053316, 45.885213178808], [-62.89769068365161, 45.88162282451107], [-62.897451387845464, 45.88156280324628], [-62.89721209268594, 45.881502781368575], [-62.87277197265863, 45.87536842488225], [-62.87253274422035, 45.87530833979875], [-62.872293516429146, 45.87524825410264], [-62.86844924861893, 45.874282601496894], [-62.84604306448866, 45.87046560834894], [-62.845796115223266, 45.870423499327025], [-62.84554916642594, 45.870381389643164], [-62.828100230085276, 45.86740456302101], [-62.82785331484494, 45.867362405904906], [-62.8276064000731, 45.867320248127], [-62.818458863956685, 45.86575810895534], [-62.80818379281895, 45.86456975723402], [-62.80793304590082, 45.86454074769075], [-62.80768229931007, 45.86451173746057], [-62.79027269323972, 45.86249537969732], [-62.79002196972844, 45.86246632109076], [-62.78977124654506, 45.862437261797396], [-62.77777670776236, 45.86104595894768], [-62.77752600060418, 45.86101686611345], [-62.77727529377425, 45.86098777259252], [-62.767852649491495, 45.8598935824994], [-62.76760195533403, 45.85986446248356], [-62.76735126150508, 45.85983534178109], [-62.75440742622558, 45.85833050333941], [-62.74722231911001, 45.858294892382446], [-62.746968194953, 45.85829362586654], [-62.74671407081042, 45.85829235864123], [-62.710732354153414, 45.85810675710426], [-62.699089817642246, 45.85804179865831], [-62.698835696377195, 45.858040397780165], [-62.69575956528185, 45.858023353404604], [-62.64224296782959, 45.85867916612675], [-62.64198887232917, 45.85868220095143], [-62.630424122803205, 45.858819771538776], [-62.63041868270391, 45.858805436105754], [-62.63017309134215, 45.858810898584494], [-62.55030107792692, 45.86055553192491], [-62.55004705732017, 45.86056097590425], [-62.54979303665118, 45.86056641917494], [-62.54022794153646, 45.86077056063805], [-62.50000001355947, 45.861271814149504], [-62.49999997958594, 45.9433415996699], [-62.49999999672799, 45.958021197561514], [-62.50000000919883, 45.96849648320293], [-62.489943183979676, 45.97352928147135], [-62.46161985964258, 45.98769181609698], [-62.44117033014751, 45.997906675205556], [-62.440842058761135, 45.9982925109044], [-62.4393444736804, 46.00005262824395], [-62.43934016462258, 46.00005768258272], [-62.43933572552068, 46.00006291863311], [-62.424984464133786, 46.01692243877204], [-62.42016382190258, 46.02375233363127], [-62.4062972383171, 46.04338652561915], [-62.39860034278328, 46.054277150332695], [-62.38201325515744, 46.07772820192128], [-62.35596844039548, 46.113678711553355], [-62.34661825810574, 46.12657041719162], [-62.31870699570483, 46.165007426928156], [-62.308459986919104, 46.17978430081021], [-62.30038834820032, 46.18954638604003], [-62.30031361628982, 46.18964755952412], [-62.278581664810154, 46.21904729992064], [-62.260074256620086, 46.24924135623231], [-62.2583847255645, 46.25157483061615], [-62.24778011188341, 46.259568642023986], [-62.22198732823423, 46.275629331181], [-62.216419988760585, 46.280405931887266], [-62.18869080450874, 46.29720432883397], [-62.17584575910007, 46.3049790959952], [-62.145345979111255, 46.323422713455486], [-62.12880439049128, 46.333415549747066], [-62.12171226712157, 46.33769774887899], [-62.11497910492998, 46.34176202841803], [-62.11307238836462, 46.342949668787675], [-62.10462148793555, 46.34821234946555], [-62.10457295410047, 46.3482425601733], [-62.088789022866635, 46.35806658626633], [-62.07751445386128, 46.36507987949185], [-62.06461278987787, 46.3731011310353], [-62.052544855172954, 46.38059997494062], [-62.04059293482691, 46.38802290128007], [-62.0360336604979, 46.39085349870628], [-62.02604131473902, 46.39705525818313], [-62.000002066281674, 46.41320396387855], [-62.00000001665457, 46.41320524051652], [-61.99999216553739, 46.413210098307914], [-61.99248966706036, 46.417859554825824], [-61.980375786243464, 46.42993730739765], [-61.968603945193564, 46.44166677985006], [-61.95499297712737, 46.4570118774762], [-61.9574663564284, 46.46552918516056], [-61.96601343192543, 46.470542983176664], [-61.982083248573836, 46.47491343573288], [-61.99660413995445, 46.47885955095959], [-61.996762217694815, 46.47888755880013], [-61.999993527894965, 46.47945971706454], [-62.00000000587152, 46.4794608468849], [-62.02908561692978, 46.484605239669634], [-62.04432204099824, 46.485214532242686], [-62.066183517264285, 46.48608432755035], [-62.07925337412695, 46.486601846806984], [-62.089062542068895, 46.48698902043959], [-62.11061529485617, 46.48783603347204], [-62.134299442615635, 46.48876095884244], [-62.15728353684404, 46.4896526885719], [-62.16977105258692, 46.49013477518807], [-62.170568941038724, 46.49016553021698], [-62.22232621793164, 46.4861847579023], [-62.240228558344064, 46.48480092062553], [-62.24987026555777, 46.484054144039725], [-62.28904136659489, 46.48100963034753], [-62.31618277580536, 46.47889010113631], [-62.39241246832152, 46.47571929904082], [-62.393495046578195, 46.475664180923985], [-62.406947240455494, 46.47680635421458], [-62.41315186512948, 46.47724239560658], [-62.42316425053774, 46.47794516523699], [-62.43998095899294, 46.479048905972505], [-62.45164525606036, 46.47998789449199], [-62.45173041364591, 46.47999474025198], [-62.47140308942247, 46.48016738362427], [-62.48112429638279, 46.480252272303396], [-62.48996838367154, 46.47963704584576], [-62.50000001076051, 46.47896393644721], [-62.50000114662888, 46.478963843916766], [-62.503510493971454, 46.47872812410379], [-62.512999103240126, 46.47817343455708], [-62.531422151244385, 46.4768710923316], [-62.55071958391251, 46.47562707638837], [-62.56617789103985, 46.47458463792831], [-62.581274160786734, 46.47328438490827], [-62.61569210236445, 46.47084943567033], [-62.63484698430341, 46.4692624367973], [-62.64046126543809, 46.468918874126544], [-62.6473874952217, 46.46810744273068], [-62.73235629851024, 46.45274206389973], [-62.774981497137546, 46.444560348632486], [-62.801857017633274, 46.439390133270926], [-62.80277543402781, 46.43921020651865], [-62.834749385360695, 46.43823340614809], [-62.86518528927585, 46.43729322903098], [-62.86539983614599, 46.43730351758577], [-62.93678934443245, 46.441045774273334], [-62.93759477935931, 46.44093306291913], [-62.93972561473546, 46.44073567651935], [-62.945698630240464, 46.43979760231025], [-62.95856448025221, 46.438078376134484], [-62.96657723830884, 46.43685973909647], [-62.98020962397922, 46.4349891783206], [-62.990440060602424, 46.43354904487889], [-62.99999999812947, 46.432156605413304], [-63.0019403301178, 46.431873854888714], [-63.01525040979243, 46.43045091312749], [-63.02483279096765, 46.42940065386925], [-63.04177633745956, 46.42741565529209], [-63.04764521194081, 46.42677555830702]]]}, "properties": {"FED_NUM": 11001, "ED_NAMEE": "Cardigan", "ED_NAMEF": "Cardigan", "REPORDER": "2023", "SHAPE_Leng": 288146.721985, "SHAPE_Area": 4089404183.35}}, {"type": "Feature", "geometry": {"type": "Polygon", "coordinates": [[[-63.07368023227371, 46.26454213372872], [-63.082256098720734, 46.2707069706966], [-63.08235468257471, 46.27077784719418], [-63.08246495518222, 46.27085710075242], [-63.082484872237245, 46.2708716995454], [-63.08544105422045, 46.27828701664938], [-63.08548711996038, 46.27840243169442], [-63.09091537738908, 46.28772126270177], [-63.09089281445284, 46.28774129532674], [-63.090277499288355, 46.28828768948092], [-63.089227301043714, 46.28911649368929], [-63.087723192413456, 46.29026959184504], [-63.08759350334387, 46.29038670507486], [-63.08739899577304, 46.29052190462255], [-63.08685440848736, 46.29097230119675], [-63.086750685293474, 46.2910354039641], [-63.086378690461935, 46.291336095793305], [-63.085979323589896, 46.29165709410293], [-63.08623458545497, 46.2918268983995], [-63.086328578842355, 46.29188940189025], [-63.087054910518724, 46.292362198398095], [-63.087360906297356, 46.292652488951916], [-63.08742248697109, 46.29271099186662], [-63.08767392452273, 46.293116472133796], [-63.08883864084249, 46.295698088553706], [-63.097682649866954, 46.2941933079941], [-63.10064734867645, 46.301019437305115], [-63.10323735450324, 46.30071904595087], [-63.10375567185727, 46.300658897305716], [-63.10468711153198, 46.302355767772355], [-63.106945332839096, 46.302156058534145], [-63.10779202674477, 46.30344653168179], [-63.111082134899384, 46.30282897651057], [-63.112601904709564, 46.30579295794641], [-63.11415901152628, 46.3054890138199], [-63.115291666787996, 46.30526132764197], [-63.122062506762624, 46.30389989792557], [-63.124567994291404, 46.30614273052585], [-63.12467740706676, 46.30623213872618], [-63.13254912567862, 46.304695240469556], [-63.129014258519234, 46.297109917790905], [-63.12850092370118, 46.295895765695555], [-63.12704532181379, 46.292823126207644], [-63.12758440825481, 46.29052719499654], [-63.12766315865617, 46.29050882946937], [-63.128595519425296, 46.29029147421662], [-63.13082292533766, 46.29359572440876], [-63.13957574303112, 46.2917894886757], [-63.139474609348575, 46.29144219729632], [-63.138402713433294, 46.28792950506497], [-63.138387988472424, 46.28785260930161], [-63.137716907892404, 46.28581361001176], [-63.13757805111147, 46.2853916562068], [-63.141404689485526, 46.28436628565835], [-63.14212632923827, 46.28417293520411], [-63.14284132158836, 46.28511994491607], [-63.143625072643566, 46.28490605830324], [-63.14445672363793, 46.28596491496363], [-63.14728681624929, 46.285515586071455], [-63.14811563071745, 46.287351300288954], [-63.14835037000472, 46.28734799414077], [-63.14956029501359, 46.28772549202849], [-63.150418164113084, 46.288249641223516], [-63.150871281918924, 46.28880414216734], [-63.15145835862273, 46.29028651163774], [-63.152315961725805, 46.29078398594653], [-63.15519704185915, 46.2917561400274], [-63.15605681373272, 46.29240456959055], [-63.15642159023488, 46.2931188694618], [-63.15652693025728, 46.29387836661455], [-63.15617085121746, 46.29458330986384], [-63.156087458039885, 46.29474864274497], [-63.15503272340555, 46.29672433508731], [-63.15486548126149, 46.297033897446504], [-63.15476660045509, 46.29805234035222], [-63.155224878352335, 46.29882498799404], [-63.15758209434512, 46.29829154023864], [-63.167534678094576, 46.29610562086571], [-63.17376599767076, 46.2947883656372], [-63.173775104499036, 46.29480862152338], [-63.17391416342374, 46.29476890163215], [-63.17415310388457, 46.29530156012688], [-63.17538091562303, 46.29442457633249], [-63.17594651475771, 46.295584669264166], [-63.17710616130956, 46.295220872987755], [-63.17788142666442, 46.296767747777054], [-63.17836186723701, 46.29663091887756], [-63.179805056770796, 46.29982457293865], [-63.18062943922298, 46.29960095329572], [-63.18085210171824, 46.30048377365467], [-63.181095217786805, 46.30161221904845], [-63.180975593241236, 46.30215201208112], [-63.181488304511056, 46.3031562998456], [-63.18775289733155, 46.30163541068987], [-63.186712764742836, 46.29952605202283], [-63.18596455525297, 46.29903821977494], [-63.19451138684808, 46.297111271703955], [-63.19414410482841, 46.29691382001426], [-63.193059007793046, 46.29633220894646], [-63.19135499371833, 46.295435102306364], [-63.18751771194336, 46.29338051075864], [-63.18681538783267, 46.293012598094805], [-63.18657257449771, 46.29287624107573], [-63.18625609898874, 46.292698500273616], [-63.184474312652924, 46.291774405250735], [-63.183264810016716, 46.29115539355542], [-63.18277048470213, 46.290859199091386], [-63.17915371588771, 46.28854290371506], [-63.179075609735776, 46.28847110381938], [-63.180199708785274, 46.28822491313775], [-63.183213892296344, 46.2875644866519], [-63.183940391149015, 46.28742838835972], [-63.18409619155255, 46.287428084328674], [-63.18439460755338, 46.28738261485702], [-63.18468000485759, 46.28732820018404], [-63.18508209119835, 46.28721949252496], [-63.18548431529959, 46.28715589509316], [-63.18576981068666, 46.287128391785856], [-63.18591248870752, 46.287083189636114], [-63.18649620370112, 46.28694720662909], [-63.18671679208771, 46.28691991017063], [-63.18710140156994, 46.28682862513015], [-63.1878087052552, 46.2866468142478], [-63.1878035310296, 46.28611831335674], [-63.187806621749004, 46.2859389252569], [-63.187849096046286, 46.28542763337776], [-63.18836054218658, 46.28479484470377], [-63.18895953760658, 46.2840448202996], [-63.18902987904536, 46.28380801782843], [-63.18901535933483, 46.283597621360826], [-63.18900874752359, 46.28343643886499], [-63.18899753417534, 46.28314484741029], [-63.18896512012444, 46.282375633222415], [-63.188962079578324, 46.28232364864258], [-63.18895715745207, 46.282154507116715], [-63.188960503830344, 46.282026596973665], [-63.18896335695922, 46.281871048836265], [-63.18897122619193, 46.28146033243316], [-63.18898045013907, 46.28100218541221], [-63.18898128711921, 46.280956895493475], [-63.189014678809585, 46.28087238816058], [-63.1890701836755, 46.28073183189682], [-63.18927007927563, 46.28022613366551], [-63.189333774865865, 46.28006492107755], [-63.189429593965755, 46.27982165638314], [-63.18949123793596, 46.27966658844102], [-63.19196812336955, 46.279202344316786], [-63.193082954639735, 46.27895373258029], [-63.19285924645908, 46.2783829252253], [-63.192796377365255, 46.27774376375629], [-63.1926414387403, 46.27724623620884], [-63.19627228708061, 46.27649136990341], [-63.196492573258375, 46.2765619363786], [-63.19626120908356, 46.276244795292534], [-63.195737123104095, 46.27518469480983], [-63.195732398800345, 46.27472689948827], [-63.19581140164126, 46.27453379308984], [-63.19648631817509, 46.273157694502956], [-63.19652342248143, 46.272887995014294], [-63.19672690087127, 46.272073186219664], [-63.19671800642277, 46.2716948006577], [-63.196480690801195, 46.27151368740292], [-63.19511159762813, 46.271025407797126], [-63.19458969241471, 46.27090878593526], [-63.19368080531953, 46.27083809742989], [-63.192774696175, 46.271041990961486], [-63.192271786199974, 46.27132789320543], [-63.19213549558272, 46.271519412418336], [-63.19163924736332, 46.271752186209696], [-63.19141936496381, 46.26885482975965], [-63.18802916716205, 46.265343181758304], [-63.185757397695745, 46.261700635720615], [-63.184994698600555, 46.26047759624321], [-63.18352930071484, 46.258403158637165], [-63.18347582809383, 46.25832746161305], [-63.18306559608246, 46.257746665425614], [-63.18116715791296, 46.2550588952216], [-63.177346540880286, 46.249969566663204], [-63.17666141722416, 46.24958237501286], [-63.16770384303302, 46.24451889057885], [-63.16607233298273, 46.243561157258405], [-63.160907974910145, 46.23949468344807], [-63.15947883110839, 46.23836919805431], [-63.15827165148763, 46.23741845351261], [-63.15823935268265, 46.237389603582365], [-63.151488634991274, 46.23135801194632], [-63.149463080970136, 46.22954785472694], [-63.14879486896614, 46.22895062706862], [-63.148157344223044, 46.228346012759204], [-63.145523467093994, 46.225848018639155], [-63.13634820618862, 46.217143511642824], [-63.130995053965776, 46.22084345616104], [-63.13003724177761, 46.221491992220535], [-63.125868258786404, 46.22431452370974], [-63.12533849781228, 46.22467316213093], [-63.12146624989761, 46.22733862697763], [-63.120824727847754, 46.2277801845311], [-63.119915157506306, 46.22841084229036], [-63.118878462353784, 46.22912957826852], [-63.11731226154724, 46.23021537906432], [-63.11598535910348, 46.230727846760026], [-63.11033026274008, 46.23291152335007], [-63.11030522250906, 46.23292118986495], [-63.1090694689699, 46.233398297707744], [-63.10476595127282, 46.2362133545994], [-63.104721414363475, 46.236242493065646], [-63.10102751843494, 46.23865833214725], [-63.099596340112896, 46.240123217769906], [-63.09598604796002, 46.24381800164662], [-63.093890509026714, 46.245962279905655], [-63.089882332506534, 46.250062992982784], [-63.08986720121183, 46.25007848681192], [-63.08977869972944, 46.250168999976026], [-63.08537134942636, 46.25488316249314], [-63.08274626768723, 46.25769043843415], [-63.08192202656321, 46.25831346243776], [-63.079391382677095, 46.26022622067958], [-63.07368023227371, 46.26454213372872]]]}, "properties": {"FED_NUM": 11002, "ED_NAMEE": "Charlottetown", "ED_NAMEF": "Charlottetown", "REPORDER": "2023", "SHAPE_Leng": 39581.9693859, "SHAPE_Area": 55173797.2428}}, {"type": "Feature", "geometry": {"type": "Polygon", "coordinates": [[[-63.69216666749353, 46.57738098772427], [-63.717632802589776, 46.58964273515468], [-63.758755223630914, 46.60951318730292], [-63.7975903473218, 46.62820762735112], [-63.820597383665245, 46.63958499971019], [-63.845501142264375, 46.65304614666336], [-63.86652829962537, 46.66686486571447], [-63.874559579570096, 46.67213954645824], [-63.90751551126258, 46.69355227381317], [-63.94849761401186, 46.724113255912044], [-63.97814731997627, 46.745390291763826], [-63.97803238671286, 46.75002705309032], [-63.9777122778828, 46.7629348623239], [-63.97512746284494, 46.802337557216454], [-63.97504805480587, 46.802943925979704], [-63.97414257147912, 46.81302323779654], [-63.973853504344646, 46.823284823636975], [-63.97374833281211, 46.83370607266694], [-63.973413141260174, 46.86689788691875], [-63.972936164181704, 46.87759175600419], [-63.973063124806785, 46.88864957773338], [-63.973098321281455, 46.89171544774964], [-63.972735093069495, 46.90489457845521], [-63.97257220648206, 46.90617950358298], [-63.97205377220239, 46.91026886433469], [-63.97189912067014, 46.920020577836716], [-63.97165282422677, 46.93554223676655], [-63.97160180297879, 46.938756728405686], [-63.97143690876777, 46.94914206510716], [-63.97144005958319, 46.94942026229833], [-63.971471521955415, 46.95220730340639], [-63.97153441371725, 46.95777434600746], [-63.97157440036595, 46.96131352830484], [-63.971703507096535, 46.97273548473033], [-63.9717893223172, 46.980325000955915], [-63.9720122423814, 47.00003061462252], [-63.97201229526316, 47.000033418937335], [-63.97226995566501, 47.02278850097297], [-63.972378126174135, 47.03233541331862], [-63.972759564817224, 47.065967796346236], [-63.97999443721125, 47.065843363789064], [-63.99999714251636, 47.065496450441614], [-64.00000001236026, 47.065496411765174], [-64.00204972591278, 47.06546061861874], [-64.00731938049486, 47.0612830740117], [-64.01837204332351, 47.05251766870164], [-64.03407028025393, 47.04006028913363], [-64.05658998405639, 47.02217373275142], [-64.06410869821322, 47.01619768785722], [-64.06471656599757, 47.0157144668677], [-64.06987395668042, 47.01161394412739], [-64.07619049760699, 47.00820236064469], [-64.09122613573302, 47.00007790018123], [-64.09124745071874, 47.000066365198705], [-64.09878822428824, 46.99598975128033], [-64.0988053266401, 46.995980527913474], [-64.10076334344167, 46.99492179685047], [-64.1188219723011, 46.98515303725016], [-64.15748307073214, 46.9642141994142], [-64.16049347118953, 46.96258233734963], [-64.1641802905447, 46.95998179714737], [-64.19871034036227, 46.93560479427128], [-64.21056843350536, 46.927224687108506], [-64.23065155601992, 46.91302183840162], [-64.23936725486449, 46.90157358914766], [-64.24075066187936, 46.899912987530215], [-64.25176179967693, 46.88596631928575], [-64.26251087011238, 46.872342540980895], [-64.27487059748891, 46.85689722385957], [-64.27739070358427, 46.853774727880314], [-64.28852993376583, 46.83967773372207], [-64.30825841508262, 46.81467376386422], [-64.31314753509707, 46.81134691644208], [-64.31602673317549, 46.80976700396068], [-64.31607338705369, 46.809853570806446], [-64.34324955450975, 46.79071605714483], [-64.38310254090771, 46.76359977026256], [-64.3885967405832, 46.75865924918729], [-64.39474732497648, 46.750082317681354], [-64.39475400413842, 46.75007296588016], [-64.40414079491374, 46.73697651975687], [-64.41927918023157, 46.71627256359728], [-64.44601613054753, 46.679656375331064], [-64.44423495482553, 46.67149430989823], [-64.44280556959967, 46.66494214987181], [-64.43871346132971, 46.64763683949348], [-64.43643339641018, 46.637989129642484], [-64.43188846285507, 46.61874624060974], [-64.42805127153969, 46.60248768747572], [-64.37492581058774, 46.6003811007782], [-64.36370020568287, 46.59993202285966], [-64.35845107193879, 46.599721561077864], [-64.32776540924097, 46.598485254114046], [-64.31690108885462, 46.59804508738599], [-64.30890238263294, 46.5977201899553], [-64.3005109786241, 46.59737857884883], [-64.27161709729832, 46.595257267075404], [-64.23307242580073, 46.59241304972021], [-64.21255717706894, 46.59151020696871], [-64.18786295614845, 46.58889743158283], [-64.18013421094577, 46.58807827352366], [-64.14525268814656, 46.58444037832882], [-64.11306590885657, 46.578304859036884], [-64.11310835073074, 46.57827394921149], [-64.10606995384727, 46.56973746582017], [-64.10340635816854, 46.565902538630404], [-64.10721557994228, 46.55572908740651], [-64.11086229586077, 46.54630985629381], [-64.11569759611919, 46.53373414506738], [-64.11726388732022, 46.529658993003956], [-64.118721448312, 46.5258661109276], [-64.12091032301726, 46.52016909736914], [-64.12447284701292, 46.510893833248005], [-64.12755054497467, 46.502877942235095], [-64.12862368801413, 46.50008473326106], [-64.13134127320426, 46.493009816288314], [-64.1385175959242, 46.474316813755124], [-64.14225157509146, 46.4645845166661], [-64.1466257378742, 46.45338593251724], [-64.15082758092102, 46.44262350641268], [-64.154632486164, 46.43287348477969], [-64.16336823312645, 46.41028832034779], [-64.16559311626975, 46.40453269276235], [-64.16775073924299, 46.39863412174869], [-64.10963514422951, 46.38997972762424], [-64.084165814088, 46.386174366655275], [-64.08222445873868, 46.38588399185727], [-64.06462370562889, 46.383222583423304], [-64.06303555664664, 46.38298225858206], [-64.05239735062406, 46.38137169552659], [-64.0037937829881, 46.37399630456312], [-64.00000151649336, 46.37166684057943], [-63.99999998745187, 46.37166592362739], [-63.98196033435006, 46.36057956968508], [-63.94174423949024, 46.33583361502018], [-63.94179135426057, 46.335973008081716], [-63.93075962065411, 46.33370973799407], [-63.90776332540497, 46.3268588170919], [-63.905398818191216, 46.326208205053476], [-63.895262189154344, 46.323002362003784], [-63.88447327916749, 46.319272552226344], [-63.87205691378802, 46.3150098667928], [-63.8632256872923, 46.31133168968045], [-63.848703294035836, 46.30510350582927], [-63.84531860250744, 46.30323891226161], [-63.83828996081786, 46.29936603967333], [-63.833494923859625, 46.29673729821487], [-63.82360537742589, 46.2907968792308], [-63.82342708680096, 46.29066521380114], [-63.81754398287708, 46.28631972873675], [-63.804063793159955, 46.27644112698385], [-63.80241990030524, 46.275213244898715], [-63.729838882001275, 46.293985905902815], [-63.729449785680146, 46.29401529366403], [-63.72919058849442, 46.29405299523792], [-63.72843941447768, 46.29419279693761], [-63.72818019620286, 46.29423040502197], [-63.7270107160987, 46.29443470247235], [-63.72378079883671, 46.29499891798815], [-63.72530198191473, 46.29911868246958], [-63.71965485707156, 46.300096420445], [-63.72247294503835, 46.302845008777474], [-63.72317926370605, 46.30545349916283], [-63.72885527996981, 46.3041592546723], [-63.72994020647036, 46.307154531932916], [-63.729238055428006, 46.30727336181486], [-63.72994171683241, 46.309854780538075], [-63.717408750440704, 46.31176284426278], [-63.716815405195206, 46.310363365954444], [-63.71042048580039, 46.31143299938899], [-63.710343215291786, 46.31140390380818], [-63.710185599398784, 46.31134439287575], [-63.71003859399793, 46.311302599736834], [-63.703675943433545, 46.31252319768583], [-63.70417009637639, 46.31366429165533], [-63.704481388484744, 46.31360583872309], [-63.70455958696169, 46.31359116588609], [-63.70529976825803, 46.31976438288403], [-63.7032676160816, 46.319528963286544], [-63.70226696370193, 46.319053869426966], [-63.70181429225418, 46.31903260006722], [-63.701445211972185, 46.319060454030826], [-63.7012137036668, 46.31906906125579], [-63.70030877185147, 46.31916898643925], [-63.70002942415854, 46.319158861868544], [-63.69989795142614, 46.31915121946899], [-63.69933458827217, 46.31886190731654], [-63.699043929642585, 46.318842801828325], [-63.69878953156687, 46.31892138230788], [-63.698424676454955, 46.319042461132184], [-63.69824405512178, 46.31910033058646], [-63.69785749461631, 46.31913851803081], [-63.69739552391672, 46.31893460788991], [-63.69686596164126, 46.31888430350994], [-63.696550969564505, 46.318767762978766], [-63.69590745708691, 46.318211106014765], [-63.695566167081004, 46.31810546884341], [-63.69406785870798, 46.31817963997347], [-63.693402473467266, 46.318153959886445], [-63.6927268032456, 46.31805149711208], [-63.69251089746004, 46.31781770162274], [-63.69204616519671, 46.31752166840319], [-63.69196207371569, 46.31727017850439], [-63.69172944344492, 46.316884875136125], [-63.691696315667095, 46.316893706544676], [-63.69148470209319, 46.316943991081324], [-63.69134459464107, 46.31698210833684], [-63.69117841446222, 46.31703179783795], [-63.691105397924055, 46.3170588004202], [-63.69098321366656, 46.31709380658632], [-63.6898389999814, 46.31739190432701], [-63.689530812405884, 46.317493796774635], [-63.68925309983385, 46.317635499724425], [-63.68912989074758, 46.31771990671458], [-63.68901970789876, 46.317812506435075], [-63.68894870815871, 46.31788690021296], [-63.68887681714099, 46.31797599596031], [-63.68881421035695, 46.318072701433266], [-63.6887651088663, 46.318171089671594], [-63.68873360664558, 46.318251603611166], [-63.68870270828098, 46.31849998967907], [-63.688743604835985, 46.31875459142097], [-63.68875730090717, 46.31884031431117], [-63.68905378040981, 46.31954660695623], [-63.6903024865328, 46.32277900425551], [-63.69047720701782, 46.32323699547267], [-63.69066711083551, 46.3238747973875], [-63.69081999815823, 46.32467488803868], [-63.690961916395665, 46.32562799359517], [-63.69111160295472, 46.32616710778018], [-63.69155290427339, 46.32716340935617], [-63.691807588854715, 46.32779188934023], [-63.692128093720704, 46.32848290495124], [-63.69215529756521, 46.3285727011013], [-63.693476701373726, 46.33136369126792], [-63.69469439683531, 46.33415519884252], [-63.69516360958921, 46.33529539583181], [-63.69513869767129, 46.335385510653026], [-63.695087521578166, 46.33544879382418], [-63.69554890603506, 46.33596800477918], [-63.69571210314219, 46.336230712078866], [-63.69573067987101, 46.33626064457957], [-63.69485080617544, 46.33684664854722], [-63.69250282737797, 46.33706878877549], [-63.69395578628955, 46.34046356117112], [-63.696489042973404, 46.34643152031741], [-63.7031878619541, 46.34511461619644], [-63.70342841063326, 46.345513596398526], [-63.70347008586456, 46.34572939153071], [-63.703484053061565, 46.34585720212513], [-63.703617399703596, 46.347078401158484], [-63.703619814015404, 46.34726740700704], [-63.703649401007816, 46.34754619128474], [-63.7037902044374, 46.34839139065522], [-63.70398300563419, 46.3492361934965], [-63.704011500143075, 46.34943398895817], [-63.7042748992375, 46.35071030560957], [-63.7043177134078, 46.35100710763088], [-63.704334502875916, 46.35130400219005], [-63.704274522515284, 46.35169129339551], [-63.70407089535424, 46.35235338764642], [-63.70404991591293, 46.352421701763305], [-63.70372921438233, 46.3532942079709], [-63.70343519298235, 46.35418380805642], [-63.7033840058601, 46.3546430925628], [-63.70338888987117, 46.355022992135254], [-63.70343948668333, 46.3554025954843], [-63.70356940625521, 46.35571840838937], [-63.70368130816281, 46.356104915914436], [-63.7038400926491, 46.356567388912616], [-63.704139788711785, 46.35704489335679], [-63.70459699596313, 46.357575202433296], [-63.70466901399371, 46.35765736501651], [-63.704887298518585, 46.35790641303136], [-63.70503229059048, 46.35806750604082], [-63.70519008984407, 46.35821049224501], [-63.705360997368, 46.35835350460697], [-63.70563628864033, 46.35854079839656], [-63.706265017684096, 46.35890589420212], [-63.7071722011186, 46.35939428884157], [-63.70774420786798, 46.359706706772286], [-63.708162890403116, 46.35992009370217], [-63.70837251557292, 46.360044800598395], [-63.70865554927596, 46.36017292238267], [-63.70880399386276, 46.36024010059653], [-63.7100456867879, 46.36076340484856], [-63.71039838299913, 46.36089620710912], [-63.71094749607992, 46.36113580967704], [-63.7111824908382, 46.361215406455706], [-63.71128720859495, 46.36126870655514], [-63.71196669918502, 46.361543490845264], [-63.712646512988876, 46.36183621027174], [-63.71299800517071, 46.36197749278825], [-63.71279618458155, 46.36220900020614], [-63.712726385330505, 46.36232940692797], [-63.71271441607758, 46.36249889361776], [-63.71273559849725, 46.362690709521964], [-63.712755291937555, 46.36320349020135], [-63.71278391698473, 46.36340129359616], [-63.71279099563516, 46.36395030779853], [-63.71273211857827, 46.364418599881574], [-63.712653213490825, 46.365346103915236], [-63.71258219772032, 46.36588649066499], [-63.71245979532564, 46.36647230622505], [-63.7119721058372, 46.36796029239495], [-63.71171009388094, 46.36880790038418], [-63.711671709311645, 46.368853093447704], [-63.71162260824069, 46.36907840368676], [-63.71131031143472, 46.37006139014644], [-63.71119660288147, 46.37031409171581], [-63.711056981981635, 46.37057590371389], [-63.71089121965845, 46.370828997993435], [-63.71073771738315, 46.37101890148619], [-63.71054521380804, 46.37121809382482], [-63.710262305556334, 46.371453795583996], [-63.709836803439316, 46.37173549754459], [-63.7065956851587, 46.37346550556042], [-63.70607969576207, 46.37378368798256], [-63.70557699922135, 46.374128798137505], [-63.705126418242415, 46.37447359549584], [-63.70412378779772, 46.37537968949214], [-63.7037257954274, 46.375769210305904], [-63.70363569108118, 46.37584169145887], [-63.70323778633967, 46.376249109523506], [-63.703019996080144, 46.37650250287162], [-63.702649811312234, 46.3770357062764], [-63.70239549610127, 46.3774873003316], [-63.7022193004225, 46.37794739927213], [-63.70216981153687, 46.37813670167175], [-63.70214789757813, 46.37846080114824], [-63.70200539496437, 46.38124519849624], [-63.70200230181742, 46.381305608520854], [-63.70193090673551, 46.38181899464305], [-63.70190610782336, 46.38191820277616], [-63.70127750349113, 46.383604991540906], [-63.7009625969832, 46.38439889775068], [-63.700761490776, 46.38494460449], [-63.70056039532498, 46.38549028909245], [-63.700358613957114, 46.38598659247391], [-63.6998008070083, 46.387115007991866], [-63.69963640468881, 46.38747599516576], [-63.699496594184865, 46.38773778705601], [-63.69901529964986, 46.388748690798764], [-63.69896429599431, 46.388829990596484], [-63.6987370964769, 46.38937140399139], [-63.69866359103052, 46.38972280478363], [-63.69837651077483, 46.390669594638275], [-63.69816239836861, 46.3912198979735], [-63.69803550129161, 46.39146359326187], [-63.697921995246645, 46.391743284948504], [-63.69718461270771, 46.39307979351242], [-63.69658789476959, 46.39422640907318], [-63.69647391654368, 46.39447010143027], [-63.69601639509475, 46.3953188116794], [-63.69585270348668, 46.39574281262644], [-63.6957676024276, 46.39621129216391], [-63.69576828537087, 46.396265293849595], [-63.69576989555987, 46.39639240079681], [-63.69577150566509, 46.396517312777526], [-63.69593399856073, 46.39702030466192], [-63.69610849471009, 46.39744219261305], [-63.69634829869562, 46.397890689053966], [-63.69642869648161, 46.39807018790669], [-63.69648168491138, 46.398150893791296], [-63.69673568965967, 46.398689400127964], [-63.69714940308801, 46.399505806480676], [-63.699238915812195, 46.399124094273915], [-63.69978380664176, 46.40002969224776], [-63.7009292093419, 46.40211060777184], [-63.70127490386278, 46.40269348912715], [-63.70218060049562, 46.40433491171236], [-63.70308539125982, 46.40590428697675], [-63.703603697818195, 46.40675609004603], [-63.704202413819225, 46.407778396953475], [-63.704575489395936, 46.40846900560803], [-63.70565269834496, 46.41027128915116], [-63.70569280589506, 46.41036109788236], [-63.70590791423853, 46.41071819990366], [-63.70621138914182, 46.41122190819095], [-63.70625161066131, 46.411311613057514], [-63.70657090682978, 46.41185860967915], [-63.707634911895866, 46.41364300475], [-63.707675105312106, 46.41373269902989], [-63.707980799916456, 46.41422580982444], [-63.70802101376281, 46.414315594891946], [-63.70836679677596, 46.41489839048894], [-63.70869651096526, 46.415447182895754], [-63.70964351234766, 46.41702339047165], [-63.71006959746208, 46.417767800284416], [-63.7101905828317, 46.418063995687994], [-63.71028691055947, 46.418468412294466], [-63.71029181667186, 46.4188464027418], [-63.71018689756687, 46.41978300424418], [-63.71030410422184, 46.41979129021844], [-63.711708795481655, 46.41973748846278], [-63.71176370210543, 46.41995320335323], [-63.71180400238613, 46.42005190546928], [-63.71252859351708, 46.42173039765866], [-63.71297061070889, 46.422690604851596], [-63.71298439818617, 46.42275348784729], [-63.71323889634169, 46.423309895343834], [-63.713454112233826, 46.42383949614297], [-63.714512602314755, 46.42616381430989], [-63.71514379591927, 46.42765381188154], [-63.71624898970598, 46.427574899426325], [-63.718005406513825, 46.42752789965238], [-63.719579383474525, 46.427464001389026], [-63.720867497778855, 46.42742890645825], [-63.7245878998951, 46.427288405757125], [-63.72551170393513, 46.427264491101326], [-63.727332795530025, 46.42718999691067], [-63.72852991074761, 46.427164412582506], [-63.731963396396, 46.42698041070928], [-63.73327721374311, 46.4269270065456], [-63.73342051199833, 46.426935106051715], [-63.734189995049846, 46.42705620485022], [-63.73471199237309, 46.42716079798998], [-63.736513511340455, 46.42756321268723], [-63.737009698016166, 46.42768601091249], [-63.73762380470493, 46.427861990188184], [-63.73846030731697, 46.42812659183959], [-63.74062961943674, 46.42876959937331], [-63.74104778935208, 46.428892908851836], [-63.741583804664565, 46.429069396575606], [-63.74457650693344, 46.429958889897556], [-63.74621030634755, 46.4304612051859], [-63.74658979382671, 46.43061179864537], [-63.74695650356028, 46.430780405952085], [-63.74786108866639, 46.43125139450925], [-63.74820749280978, 46.43142322374892], [-63.748117902081894, 46.43199693569324], [-63.748086146330905, 46.43220030850848], [-63.7466093120871, 46.43225646666311], [-63.74611518757556, 46.43227526136165], [-63.745925392834835, 46.43780498880018], [-63.74609737645365, 46.43979874691376], [-63.74614232961115, 46.440420092881425], [-63.750089626033464, 46.44623457888645], [-63.75367827202589, 46.451000222400616], [-63.753889760703565, 46.45137109084618], [-63.75872407883653, 46.45984751868971], [-63.75874594586982, 46.45988587041701], [-63.76256956812426, 46.46626274107242], [-63.76306644008193, 46.46703562988669], [-63.774273668567034, 46.477294911696724], [-63.780869500115436, 46.48326871483806], [-63.780871840783355, 46.48327082951869], [-63.78100816829589, 46.48339425731907], [-63.79940721025224, 46.500047748552724], [-63.79941389901197, 46.500053812401134], [-63.80047057806716, 46.50100975971527], [-63.80413689255721, 46.50761753714633], [-63.80668135490161, 46.512202271418744], [-63.8052177225551, 46.53721311500002], [-63.797013644200035, 46.5466499768467], [-63.79263042563892, 46.55159807196941], [-63.76977049151938, 46.56150511243101], [-63.74985303756399, 46.55435498731915], [-63.72815530337894, 46.557637900177824], [-63.72414116663265, 46.55824465186572], [-63.72399498676981, 46.55826672942994], [-63.7139513698237, 46.56420676163118], [-63.70921544388524, 46.5670068044154], [-63.70233824537232, 46.571071858429775], [-63.70096716390068, 46.5719224727448], [-63.700682294389516, 46.5720992045089], [-63.69216666749353, 46.57738098772427]]]}, "properties": {"FED_NUM": 11003, "ED_NAMEE": "Egmont", "ED_NAMEF": "Egmont", "REPORDER": "2023", "SHAPE_Leng": 265720.881244, "SHAPE_Area": 2289341800.04}}, {"type": "Feature", "geometry": {"type": "Polygon", "coordinates": [[[-63.69216666749353, 46.57738098772427], [-63.700682294389516, 46.5720992045089], [-63.70096716390068, 46.5719224727448], [-63.70233824537232, 46.571071858429775], [-63.70921544388524, 46.5670068044154], [-63.7139513698237, 46.56420676163118], [-63.72399498676981, 46.55826672942994], [-63.72414116663265, 46.55824465186572], [-63.72815530337894, 46.557637900177824], [-63.74985303756399, 46.55435498731915], [-63.76977049151938, 46.56150511243101], [-63.79263042563892, 46.55159807196941], [-63.797013644200035, 46.5466499768467], [-63.8052177225551, 46.53721311500002], [-63.80668135490161, 46.512202271418744], [-63.80413689255721, 46.50761753714633], [-63.80047057806716, 46.50100975971527], [-63.79941389901197, 46.500053812401134], [-63.79940721025224, 46.500047748552724], [-63.78100816829589, 46.48339425731907], [-63.780871840783355, 46.48327082951869], [-63.780869500115436, 46.48326871483806], [-63.774273668567034, 46.477294911696724], [-63.76306644008193, 46.46703562988669], [-63.76256956812426, 46.46626274107242], [-63.75874594586982, 46.45988587041701], [-63.75872407883653, 46.45984751868971], [-63.753889760703565, 46.45137109084618], [-63.75367827202589, 46.451000222400616], [-63.750089626033464, 46.44623457888645], [-63.74614232961115, 46.440420092881425], [-63.74609737645365, 46.43979874691376], [-63.745925392834835, 46.43780498880018], [-63.74611518757556, 46.43227526136165], [-63.7466093120871, 46.43225646666311], [-63.748086146330905, 46.43220030850848], [-63.748117902081894, 46.43199693569324], [-63.74820749280978, 46.43142322374892], [-63.74786108866639, 46.43125139450925], [-63.74695650356028, 46.430780405952085], [-63.74658979382671, 46.43061179864537], [-63.74621030634755, 46.4304612051859], [-63.74457650693344, 46.429958889897556], [-63.741583804664565, 46.429069396575606], [-63.74104778935208, 46.428892908851836], [-63.74062961943674, 46.42876959937331], [-63.73846030731697, 46.42812659183959], [-63.73762380470493, 46.427861990188184], [-63.737009698016166, 46.42768601091249], [-63.736513511340455, 46.42756321268723], [-63.73471199237309, 46.42716079798998], [-63.734189995049846, 46.42705620485022], [-63.73342051199833, 46.426935106051715], [-63.73327721374311, 46.4269270065456], [-63.731963396396, 46.42698041070928], [-63.72852991074761, 46.427164412582506], [-63.727332795530025, 46.42718999691067], [-63.72551170393513, 46.427264491101326], [-63.7245878998951, 46.427288405757125], [-63.720867497778855, 46.42742890645825], [-63.719579383474525, 46.427464001389026], [-63.718005406513825, 46.42752789965238], [-63.71624898970598, 46.427574899426325], [-63.71514379591927, 46.42765381188154], [-63.714512602314755, 46.42616381430989], [-63.713454112233826, 46.42383949614297], [-63.71323889634169, 46.423309895343834], [-63.71298439818617, 46.42275348784729], [-63.71297061070889, 46.422690604851596], [-63.71252859351708, 46.42173039765866], [-63.71180400238613, 46.42005190546928], [-63.71176370210543, 46.41995320335323], [-63.711708795481655, 46.41973748846278], [-63.71030410422184, 46.41979129021844], [-63.71018689756687, 46.41978300424418], [-63.71029181667186, 46.4188464027418], [-63.71028691055947, 46.418468412294466], [-63.7101905828317, 46.418063995687994], [-63.71006959746208, 46.417767800284416], [-63.70964351234766, 46.41702339047165], [-63.70869651096526, 46.415447182895754], [-63.70836679677596, 46.41489839048894], [-63.70802101376281, 46.414315594891946], [-63.707980799916456, 46.41422580982444], [-63.707675105312106, 46.41373269902989], [-63.707634911895866, 46.41364300475], [-63.70657090682978, 46.41185860967915], [-63.70625161066131, 46.411311613057514], [-63.70621138914182, 46.41122190819095], [-63.70590791423853, 46.41071819990366], [-63.70569280589506, 46.41036109788236], [-63.70565269834496, 46.41027128915116], [-63.704575489395936, 46.40846900560803], [-63.704202413819225, 46.407778396953475], [-63.703603697818195, 46.40675609004603], [-63.70308539125982, 46.40590428697675], [-63.70218060049562, 46.40433491171236], [-63.70127490386278, 46.40269348912715], [-63.7009292093419, 46.40211060777184], [-63.69978380664176, 46.40002969224776], [-63.699238915812195, 46.399124094273915], [-63.69714940308801, 46.399505806480676], [-63.69673568965967, 46.398689400127964], [-63.69648168491138, 46.398150893791296], [-63.69642869648161, 46.39807018790669], [-63.69634829869562, 46.397890689053966], [-63.69610849471009, 46.39744219261305], [-63.69593399856073, 46.39702030466192], [-63.69577150566509, 46.396517312777526], [-63.69576989555987, 46.39639240079681], [-63.69576828537087, 46.396265293849595], [-63.6957676024276, 46.39621129216391], [-63.69585270348668, 46.39574281262644], [-63.69601639509475, 46.3953188116794], [-63.69647391654368, 46.39447010143027], [-63.69658789476959, 46.39422640907318], [-63.69718461270771, 46.39307979351242], [-63.697921995246645, 46.391743284948504], [-63.69803550129161, 46.39146359326187], [-63.69816239836861, 46.3912198979735], [-63.69837651077483, 46.390669594638275], [-63.69866359103052, 46.38972280478363], [-63.6987370964769, 46.38937140399139], [-63.69896429599431, 46.388829990596484], [-63.69901529964986, 46.388748690798764], [-63.699496594184865, 46.38773778705601], [-63.69963640468881, 46.38747599516576], [-63.6998008070083, 46.387115007991866], [-63.700358613957114, 46.38598659247391], [-63.70056039532498, 46.38549028909245], [-63.700761490776, 46.38494460449], [-63.7009625969832, 46.38439889775068], [-63.70127750349113, 46.383604991540906], [-63.70190610782336, 46.38191820277616], [-63.70193090673551, 46.38181899464305], [-63.70200230181742, 46.381305608520854], [-63.70200539496437, 46.38124519849624], [-63.70214789757813, 46.37846080114824], [-63.70216981153687, 46.37813670167175], [-63.7022193004225, 46.37794739927213], [-63.70239549610127, 46.3774873003316], [-63.702649811312234, 46.3770357062764], [-63.703019996080144, 46.37650250287162], [-63.70323778633967, 46.376249109523506], [-63.70363569108118, 46.37584169145887], [-63.7037257954274, 46.375769210305904], [-63.70412378779772, 46.37537968949214], [-63.705126418242415, 46.37447359549584], [-63.70557699922135, 46.374128798137505], [-63.70607969576207, 46.37378368798256], [-63.7065956851587, 46.37346550556042], [-63.709836803439316, 46.37173549754459], [-63.710262305556334, 46.371453795583996], [-63.71054521380804, 46.37121809382482], [-63.71073771738315, 46.37101890148619], [-63.71089121965845, 46.370828997993435], [-63.711056981981635, 46.37057590371389], [-63.71119660288147, 46.37031409171581], [-63.71131031143472, 46.37006139014644], [-63.71162260824069, 46.36907840368676], [-63.711671709311645, 46.368853093447704], [-63.71171009388094, 46.36880790038418], [-63.7119721058372, 46.36796029239495], [-63.71245979532564, 46.36647230622505], [-63.71258219772032, 46.36588649066499], [-63.712653213490825, 46.365346103915236], [-63.71273211857827, 46.364418599881574], [-63.71279099563516, 46.36395030779853], [-63.71278391698473, 46.36340129359616], [-63.712755291937555, 46.36320349020135], [-63.71273559849725, 46.362690709521964], [-63.71271441607758, 46.36249889361776], [-63.712726385330505, 46.36232940692797], [-63.71279618458155, 46.36220900020614], [-63.71299800517071, 46.36197749278825], [-63.712646512988876, 46.36183621027174], [-63.71196669918502, 46.361543490845264], [-63.71128720859495, 46.36126870655514], [-63.7111824908382, 46.361215406455706], [-63.71094749607992, 46.36113580967704], [-63.71039838299913, 46.36089620710912], [-63.7100456867879, 46.36076340484856], [-63.70880399386276, 46.36024010059653], [-63.70865554927596, 46.36017292238267], [-63.70837251557292, 46.360044800598395], [-63.708162890403116, 46.35992009370217], [-63.70774420786798, 46.359706706772286], [-63.7071722011186, 46.35939428884157], [-63.706265017684096, 46.35890589420212], [-63.70563628864033, 46.35854079839656], [-63.705360997368, 46.35835350460697], [-63.70519008984407, 46.35821049224501], [-63.70503229059048, 46.35806750604082], [-63.704887298518585, 46.35790641303136], [-63.70466901399371, 46.35765736501651], [-63.70459699596313, 46.357575202433296], [-63.704139788711785, 46.35704489335679], [-63.7038400926491, 46.356567388912616], [-63.70368130816281, 46.356104915914436], [-63.70356940625521, 46.35571840838937], [-63.70343948668333, 46.3554025954843], [-63.70338888987117, 46.355022992135254], [-63.7033840058601, 46.3546430925628], [-63.70343519298235, 46.35418380805642], [-63.70372921438233, 46.3532942079709], [-63.70404991591293, 46.352421701763305], [-63.70407089535424, 46.35235338764642], [-63.704274522515284, 46.35169129339551], [-63.704334502875916, 46.35130400219005], [-63.7043177134078, 46.35100710763088], [-63.7042748992375, 46.35071030560957], [-63.704011500143075, 46.34943398895817], [-63.70398300563419, 46.3492361934965], [-63.7037902044374, 46.34839139065522], [-63.703649401007816, 46.34754619128474], [-63.703619814015404, 46.34726740700704], [-63.703617399703596, 46.347078401158484], [-63.703484053061565, 46.34585720212513], [-63.70347008586456, 46.34572939153071], [-63.70342841063326, 46.345513596398526], [-63.7031878619541, 46.34511461619644], [-63.696489042973404, 46.34643152031741], [-63.69395578628955, 46.34046356117112], [-63.69250282737797, 46.33706878877549], [-63.69485080617544, 46.33684664854722], [-63.69573067987101, 46.33626064457957], [-63.69571210314219, 46.336230712078866], [-63.69554890603506, 46.33596800477918], [-63.695087521578166, 46.33544879382418], [-63.69513869767129, 46.335385510653026], [-63.69516360958921, 46.33529539583181], [-63.69469439683531, 46.33415519884252], [-63.693476701373726, 46.33136369126792], [-63.69215529756521, 46.3285727011013], [-63.692128093720704, 46.32848290495124], [-63.691807588854715, 46.32779188934023], [-63.69155290427339, 46.32716340935617], [-63.69111160295472, 46.32616710778018], [-63.690961916395665, 46.32562799359517], [-63.69081999815823, 46.32467488803868], [-63.69066711083551, 46.3238747973875], [-63.69047720701782, 46.32323699547267], [-63.6903024865328, 46.32277900425551], [-63.68905378040981, 46.31954660695623], [-63.68875730090717, 46.31884031431117], [-63.688743604835985, 46.31875459142097], [-63.68870270828098, 46.31849998967907], [-63.68873360664558, 46.318251603611166], [-63.6887651088663, 46.318171089671594], [-63.68881421035695, 46.318072701433266], [-63.68887681714099, 46.31797599596031], [-63.68894870815871, 46.31788690021296], [-63.68901970789876, 46.317812506435075], [-63.68912989074758, 46.31771990671458], [-63.68925309983385, 46.317635499724425], [-63.689530812405884, 46.317493796774635], [-63.6898389999814, 46.31739190432701], [-63.69098321366656, 46.31709380658632], [-63.691105397924055, 46.3170588004202], [-63.69117841446222, 46.31703179783795], [-63.69134459464107, 46.31698210833684], [-63.69148470209319, 46.316943991081324], [-63.691696315667095, 46.316893706544676], [-63.69172944344492, 46.316884875136125], [-63.69196207371569, 46.31727017850439], [-63.69204616519671, 46.31752166840319], [-63.69251089746004, 46.31781770162274], [-63.6927268032456, 46.31805149711208], [-63.693402473467266, 46.318153959886445], [-63.69406785870798, 46.31817963997347], [-63.695566167081004, 46.31810546884341], [-63.69590745708691, 46.318211106014765], [-63.696550969564505, 46.318767762978766], [-63.69686596164126, 46.31888430350994], [-63.69739552391672, 46.31893460788991], [-63.69785749461631, 46.31913851803081], [-63.69824405512178, 46.31910033058646], [-63.698424676454955, 46.319042461132184], [-63.69878953156687, 46.31892138230788], [-63.699043929642585, 46.318842801828325], [-63.69933458827217, 46.31886190731654], [-63.69989795142614, 46.31915121946899], [-63.70002942415854, 46.319158861868544], [-63.70030877185147, 46.31916898643925], [-63.7012137036668, 46.31906906125579], [-63.701445211972185, 46.319060454030826], [-63.70181429225418, 46.31903260006722], [-63.70226696370193, 46.319053869426966], [-63.7032676160816, 46.319528963286544], [-63.70529976825803, 46.31976438288403], [-63.70455958696169, 46.31359116588609], [-63.704481388484744, 46.31360583872309], [-63.70417009637639, 46.31366429165533], [-63.703675943433545, 46.31252319768583], [-63.71003859399793, 46.311302599736834], [-63.710185599398784, 46.31134439287575], [-63.710343215291786, 46.31140390380818], [-63.71042048580039, 46.31143299938899], [-63.716815405195206, 46.310363365954444], [-63.717408750440704, 46.31176284426278], [-63.72994171683241, 46.309854780538075], [-63.729238055428006, 46.30727336181486], [-63.72994020647036, 46.307154531932916], [-63.72885527996981, 46.3041592546723], [-63.72317926370605, 46.30545349916283], [-63.72247294503835, 46.302845008777474], [-63.71965485707156, 46.300096420445], [-63.72530198191473, 46.29911868246958], [-63.72378079883671, 46.29499891798815], [-63.7270107160987, 46.29443470247235], [-63.72818019620286, 46.29423040502197], [-63.72843941447768, 46.29419279693761], [-63.72919058849442, 46.29405299523792], [-63.729449785680146, 46.29401529366403], [-63.729838882001275, 46.293985905902815], [-63.80241990030524, 46.275213244898715], [-63.79356451040297, 46.26859718446966], [-63.76986896938609, 46.251066038393645], [-63.76886348922169, 46.25002377065438], [-63.76886240634307, 46.250022684571874], [-63.74911911858622, 46.22954637347307], [-63.74626968946925, 46.226588855298935], [-63.74036297732274, 46.22061498889615], [-63.74021892617511, 46.220469289288324], [-63.74013098748333, 46.22038031675886], [-63.740016295225644, 46.22026430790581], [-63.71313950178073, 46.19305816722054], [-63.70490201520865, 46.18471207178263], [-63.70059286120199, 46.18034464221245], [-63.700448144250316, 46.18019795309701], [-63.67909425231397, 46.15854076534369], [-63.6609962766433, 46.14016676364806], [-63.66085185555676, 46.14002004842499], [-63.660707402426404, 46.13987332217026], [-63.64845611812674, 46.127425135473665], [-63.6483117472595, 46.12727839767172], [-63.6481673773503, 46.12713165973537], [-63.61485975886118, 46.09324784089322], [-63.61485312045925, 46.09324105923012], [-63.61471161123835, 46.093096991749164], [-63.614476979291645, 46.09315862004961], [-63.614472830844136, 46.09315972120542], [-63.60238688890249, 46.09633357899102], [-63.58378452069535, 46.099433233234556], [-63.58353601957662, 46.099474600643525], [-63.58328750229141, 46.09951599030846], [-63.57925331020838, 46.100187618809414], [-63.53283538379807, 46.0945404404012], [-63.53258372524509, 46.09450974465721], [-63.53233206704126, 46.094479048224606], [-63.500000011295974, 46.09053068037418], [-63.49999500105314, 46.090530083251956], [-63.48868430556843, 46.08914597632402], [-63.483983459345524, 46.088515234914546], [-63.483732646765155, 46.08848156809235], [-63.48348183456636, 46.088447900586935], [-63.418191730942226, 46.07966054665529], [-63.34861184168147, 46.07051158089934], [-63.34836123998823, 46.070478533331816], [-63.34811038355989, 46.070446498492], [-63.33094308358357, 46.06825283118481], [-63.330768947821056, 46.06823055382731], [-63.33069973721598, 46.06821074550468], [-63.330463590696866, 46.06814314659336], [-63.27588137111337, 46.05249411155775], [-63.27564544084146, 46.052426363812515], [-63.27540944791426, 46.05235870694249], [-63.14620915001361, 46.01520465142487], [-63.14620593277519, 46.01520892456109], [-63.13295086616753, 46.03288502452601], [-63.116064043286144, 46.056341775104045], [-63.099721130400766, 46.07901866728322], [-63.1022331314792, 46.09131497805412], [-63.10913823201169, 46.125083447205306], [-63.112600877233234, 46.14199942355357], [-63.12000379813227, 46.17812484604659], [-63.12198083091491, 46.18776345797702], [-63.12292509583014, 46.19167984007445], [-63.12376865247421, 46.19283054226953], [-63.127886255464155, 46.19844668977463], [-63.127988908210924, 46.198541570961176], [-63.13238801299733, 46.202607143918435], [-63.13630361483738, 46.20622512839831], [-63.144331816062866, 46.21069036710578], [-63.1446779260292, 46.210901885839185], [-63.138115727559395, 46.2154658089582], [-63.13634820618862, 46.217143511642824], [-63.145523467093994, 46.225848018639155], [-63.148157344223044, 46.228346012759204], [-63.14879486896614, 46.22895062706862], [-63.149463080970136, 46.22954785472694], [-63.151488634991274, 46.23135801194632], [-63.15823935268265, 46.237389603582365], [-63.15827165148763, 46.23741845351261], [-63.15947883110839, 46.23836919805431], [-63.160907974910145, 46.23949468344807], [-63.16607233298273, 46.243561157258405], [-63.16770384303302, 46.24451889057885], [-63.17666141722416, 46.24958237501286], [-63.177346540880286, 46.249969566663204], [-63.18116715791296, 46.2550588952216], [-63.18306559608246, 46.257746665425614], [-63.18347582809383, 46.25832746161305], [-63.18352930071484, 46.258403158637165], [-63.184994698600555, 46.26047759624321], [-63.185757397695745, 46.261700635720615], [-63.18802916716205, 46.265343181758304], [-63.19141936496381, 46.26885482975965], [-63.19163924736332, 46.271752186209696], [-63.19213549558272, 46.271519412418336], [-63.192271786199974, 46.27132789320543], [-63.192774696175, 46.271041990961486], [-63.19368080531953, 46.27083809742989], [-63.19458969241471, 46.27090878593526], [-63.19511159762813, 46.271025407797126], [-63.196480690801195, 46.27151368740292], [-63.19671800642277, 46.2716948006577], [-63.19672690087127, 46.272073186219664], [-63.19652342248143, 46.272887995014294], [-63.19648631817509, 46.273157694502956], [-63.19581140164126, 46.27453379308984], [-63.195732398800345, 46.27472689948827], [-63.195737123104095, 46.27518469480983], [-63.19626120908356, 46.276244795292534], [-63.196492573258375, 46.2765619363786], [-63.19627228708061, 46.27649136990341], [-63.1926414387403, 46.27724623620884], [-63.192796377365255, 46.27774376375629], [-63.19285924645908, 46.2783829252253], [-63.193082954639735, 46.27895373258029], [-63.19196812336955, 46.279202344316786], [-63.18949123793596, 46.27966658844102], [-63.189429593965755, 46.27982165638314], [-63.189333774865865, 46.28006492107755], [-63.18927007927563, 46.28022613366551], [-63.1890701836755, 46.28073183189682], [-63.189014678809585, 46.28087238816058], [-63.18898128711921, 46.280956895493475], [-63.18898045013907, 46.28100218541221], [-63.18897122619193, 46.28146033243316], [-63.18896335695922, 46.281871048836265], [-63.188960503830344, 46.282026596973665], [-63.18895715745207, 46.282154507116715], [-63.188962079578324, 46.28232364864258], [-63.18896512012444, 46.282375633222415], [-63.18899753417534, 46.28314484741029], [-63.18900874752359, 46.28343643886499], [-63.18901535933483, 46.283597621360826], [-63.18902987904536, 46.28380801782843], [-63.18895953760658, 46.2840448202996], [-63.18836054218658, 46.28479484470377], [-63.187849096046286, 46.28542763337776], [-63.187806621749004, 46.2859389252569], [-63.1878035310296, 46.28611831335674], [-63.1878087052552, 46.2866468142478], [-63.18710140156994, 46.28682862513015], [-63.18671679208771, 46.28691991017063], [-63.18649620370112, 46.28694720662909], [-63.18591248870752, 46.287083189636114], [-63.18576981068666, 46.287128391785856], [-63.18548431529959, 46.28715589509316], [-63.18508209119835, 46.28721949252496], [-63.18468000485759, 46.28732820018404], [-63.18439460755338, 46.28738261485702], [-63.18409619155255, 46.287428084328674], [-63.183940391149015, 46.28742838835972], [-63.183213892296344, 46.2875644866519], [-63.180199708785274, 46.28822491313775], [-63.179075609735776, 46.28847110381938], [-63.17915371588771, 46.28854290371506], [-63.18277048470213, 46.290859199091386], [-63.183264810016716, 46.29115539355542], [-63.184474312652924, 46.291774405250735], [-63.18625609898874, 46.292698500273616], [-63.18657257449771, 46.29287624107573], [-63.18681538783267, 46.293012598094805], [-63.18751771194336, 46.29338051075864], [-63.19135499371833, 46.295435102306364], [-63.193059007793046, 46.29633220894646], [-63.19414410482841, 46.29691382001426], [-63.19451138684808, 46.297111271703955], [-63.18596455525297, 46.29903821977494], [-63.186712764742836, 46.29952605202283], [-63.18775289733155, 46.30163541068987], [-63.181488304511056, 46.3031562998456], [-63.180975593241236, 46.30215201208112], [-63.181095217786805, 46.30161221904845], [-63.18085210171824, 46.30048377365467], [-63.18062943922298, 46.29960095329572], [-63.179805056770796, 46.29982457293865], [-63.17836186723701, 46.29663091887756], [-63.17788142666442, 46.296767747777054], [-63.17710616130956, 46.295220872987755], [-63.17594651475771, 46.295584669264166], [-63.17538091562303, 46.29442457633249], [-63.17415310388457, 46.29530156012688], [-63.17391416342374, 46.29476890163215], [-63.173775104499036, 46.29480862152338], [-63.17376599767076, 46.2947883656372], [-63.167534678094576, 46.29610562086571], [-63.15758209434512, 46.29829154023864], [-63.155224878352335, 46.29882498799404], [-63.15476660045509, 46.29805234035222], [-63.15486548126149, 46.297033897446504], [-63.15503272340555, 46.29672433508731], [-63.156087458039885, 46.29474864274497], [-63.15617085121746, 46.29458330986384], [-63.15652693025728, 46.29387836661455], [-63.15642159023488, 46.2931188694618], [-63.15605681373272, 46.29240456959055], [-63.15519704185915, 46.2917561400274], [-63.152315961725805, 46.29078398594653], [-63.15145835862273, 46.29028651163774], [-63.150871281918924, 46.28880414216734], [-63.150418164113084, 46.288249641223516], [-63.14956029501359, 46.28772549202849], [-63.14835037000472, 46.28734799414077], [-63.14811563071745, 46.287351300288954], [-63.14728681624929, 46.285515586071455], [-63.14445672363793, 46.28596491496363], [-63.143625072643566, 46.28490605830324], [-63.14284132158836, 46.28511994491607], [-63.14212632923827, 46.28417293520411], [-63.141404689485526, 46.28436628565835], [-63.13757805111147, 46.2853916562068], [-63.137716907892404, 46.28581361001176], [-63.138387988472424, 46.28785260930161], [-63.138402713433294, 46.28792950506497], [-63.139474609348575, 46.29144219729632], [-63.13957574303112, 46.2917894886757], [-63.13082292533766, 46.29359572440876], [-63.128595519425296, 46.29029147421662], [-63.12766315865617, 46.29050882946937], [-63.12758440825481, 46.29052719499654], [-63.12704532181379, 46.292823126207644], [-63.12850092370118, 46.295895765695555], [-63.129014258519234, 46.297109917790905], [-63.13254912567862, 46.304695240469556], [-63.12467740706676, 46.30623213872618], [-63.124567994291404, 46.30614273052585], [-63.122062506762624, 46.30389989792557], [-63.115291666787996, 46.30526132764197], [-63.11415901152628, 46.3054890138199], [-63.112601904709564, 46.30579295794641], [-63.111082134899384, 46.30282897651057], [-63.10779202674477, 46.30344653168179], [-63.106945332839096, 46.302156058534145], [-63.10468711153198, 46.302355767772355], [-63.10375567185727, 46.300658897305716], [-63.10323735450324, 46.30071904595087], [-63.10064734867645, 46.301019437305115], [-63.097682649866954, 46.2941933079941], [-63.08883864084249, 46.295698088553706], [-63.08767392452273, 46.293116472133796], [-63.08742248697109, 46.29271099186662], [-63.087360906297356, 46.292652488951916], [-63.087054910518724, 46.292362198398095], [-63.086328578842355, 46.29188940189025], [-63.08623458545497, 46.2918268983995], [-63.085979323589896, 46.29165709410293], [-63.086378690461935, 46.291336095793305], [-63.086750685293474, 46.2910354039641], [-63.08685440848736, 46.29097230119675], [-63.08739899577304, 46.29052190462255], [-63.08759350334387, 46.29038670507486], [-63.087723192413456, 46.29026959184504], [-63.089227301043714, 46.28911649368929], [-63.090277499288355, 46.28828768948092], [-63.09089281445284, 46.28774129532674], [-63.09091537738908, 46.28772126270177], [-63.08548711996038, 46.27840243169442], [-63.08544105422045, 46.27828701664938], [-63.082484872237245, 46.2708716995454], [-63.08246495518222, 46.27085710075242], [-63.08235468257471, 46.27077784719418], [-63.082256098720734, 46.2707069706966], [-63.07368023227371, 46.26454213372872], [-63.06505152962302, 46.270991609289204], [-63.05542513227782, 46.27818380201756], [-63.05400817315453, 46.279242194616415], [-63.0443547750059, 46.28490419730493], [-63.03727520002199, 46.28905508429767], [-63.02957938076073, 46.2935658656057], [-63.02629122826635, 46.29539034518204], [-63.025311118435035, 46.29576515208315], [-63.020345367137026, 46.29766394431635], [-63.01076080673425, 46.30283177220756], [-63.00497126981827, 46.30575844033611], [-63.004366809699974, 46.306063953535784], [-63.0022653124038, 46.30709855206667], [-63.00042529013895, 46.30711108124974], [-63.000000000578886, 46.30720519461393], [-62.99420848664236, 46.30848625606443], [-62.989789882141196, 46.30946335310044], [-62.99025142432994, 46.31070774852826], [-62.99008292072846, 46.311698365651935], [-62.98915642632144, 46.31279931527326], [-62.98807799185354, 46.31390127401597], [-62.98872269532375, 46.31438120758658], [-62.98980360787409, 46.315637169812874], [-62.98933421634781, 46.31684037740581], [-62.98779846975777, 46.31784013221698], [-62.987357320664856, 46.31889574935829], [-62.98669294821199, 46.31919492182101], [-62.985950859012014, 46.32046310231486], [-62.98642120889581, 46.3215126527393], [-62.98820228587475, 46.32284823718322], [-62.990636130849566, 46.32304251243132], [-62.9923371859643, 46.32298899893591], [-62.994797893733, 46.322930346743235], [-62.99648099128834, 46.32376113099493], [-62.998389051129344, 46.32760115372823], [-63.00065509262444, 46.32725769197485], [-63.00083578410796, 46.327549494510954], [-63.00094789726302, 46.32767680301919], [-63.0010143835627, 46.32773300840277], [-63.00116870009095, 46.32783690685198], [-63.00124990961055, 46.32787829026356], [-63.00134748624, 46.327928201790435], [-63.00194538258262, 46.328172904047584], [-63.013717450822156, 46.326232659625006], [-63.01466761906322, 46.3287407018144], [-63.01505729578865, 46.32856969684588], [-63.01535611533015, 46.32847959306537], [-63.015446998657254, 46.328434613197565], [-63.0162263974639, 46.32817349013512], [-63.017070820218635, 46.32792139888095], [-63.017213794968086, 46.328119409092665], [-63.01736968490126, 46.32829030715744], [-63.01827939176392, 46.32919018644235], [-63.018487411208895, 46.32943320173543], [-63.018591387398075, 46.32960409832428], [-63.01882540683514, 46.33012611000395], [-63.01885140204432, 46.33022509229763], [-63.01887748055594, 46.330423102050624], [-63.018877700152736, 46.33125111317372], [-63.0189167920141, 46.33146700579396], [-63.01904690619081, 46.33193498806167], [-63.01913787754615, 46.33208800383541], [-63.019332887190494, 46.332493006852594], [-63.02046421978729, 46.33501269304389], [-63.02058120155403, 46.33520168975022], [-63.02093219460896, 46.33565159624147], [-63.02111420847803, 46.33584060203568], [-63.02123120404686, 46.33593048851615], [-63.02149108762824, 46.336173492264386], [-63.02159510270622, 46.336245507540625], [-63.02161720171556, 46.336270612822865], [-63.021720693481114, 46.33638862843396], [-63.02181610643391, 46.33649741279212], [-63.02196988493853, 46.336800880768564], [-63.02237541716369, 46.33800030270239], [-63.02238850043052, 46.33820729990843], [-63.022440616168566, 46.338414295314], [-63.02250558239257, 46.338612196482664], [-63.02254471420875, 46.33880120759323], [-63.0226055129123, 46.33895890496118], [-63.02264868962953, 46.339071206690654], [-63.02292179320191, 46.33962909537818], [-63.023442002182954, 46.34056501224331], [-63.02410529045011, 46.34190579481944], [-63.0247556904394, 46.343282710758], [-63.02571819910163, 46.34525341333689], [-63.0260303860899, 46.345910293654036], [-63.026967212232805, 46.34810610152061], [-63.027175313221456, 46.34849300398233], [-63.02725340022212, 46.348682006537935], [-63.027812791382104, 46.34981579948628], [-63.02792989585343, 46.350094796527216], [-63.02808599215671, 46.350364694425075], [-63.02860630625127, 46.351012599081685], [-63.02891828761945, 46.35127349849822], [-63.02915238242472, 46.3514625066045], [-63.03027049026841, 46.35223609036278], [-63.03063461491624, 46.352533006928425], [-63.03090770521605, 46.352847989454176], [-63.03098579797127, 46.35291988889866], [-63.03119390638145, 46.353180909777116], [-63.03141498282772, 46.35354080776078], [-63.03184941841402, 46.35417169387947], [-63.03323631111259, 46.35618620140116], [-63.03345750605872, 46.356555205425956], [-63.03358768733745, 46.35684309197366], [-63.033639792708684, 46.35704110492236], [-63.033665903662296, 46.35723908814254], [-63.033653101158066, 46.35754508762874], [-63.03358831004505, 46.357950113149904], [-63.03352349657833, 46.35814811146822], [-63.0333160113785, 46.35903010084218], [-63.03321241272021, 46.3595882024834], [-63.03318659543009, 46.3599840953869], [-63.033199804442674, 46.36029909892796], [-63.03322589926891, 46.36049710789417], [-63.03335618375307, 46.361010095736255], [-63.03493230356782, 46.36599548841279], [-63.035088705210015, 46.366553392016115], [-63.03510171763749, 46.366652399160664], [-63.03515390005201, 46.366832397765165], [-63.0352583011999, 46.36750728692403], [-63.03528438513921, 46.367597297925734], [-63.03563710837127, 46.37024311582643], [-63.035646256315715, 46.37031098668406], [-63.03586598598165, 46.37194359838264], [-63.036120479707314, 46.37383390659088], [-63.03636238519481, 46.37535240592588], [-63.03672120267653, 46.37760460656666], [-63.0367211956934, 46.37766761052425], [-63.0368126059584, 46.37818960988663], [-63.03691689932826, 46.37855849289845], [-63.036955906366984, 46.37864850576093], [-63.03789342137183, 46.380457093851014], [-63.03829709716555, 46.38119500564334], [-63.038454811552995, 46.38150519783249], [-63.03846629291616, 46.38152790190747], [-63.03854832425651, 46.38168150835892], [-63.026728020727965, 46.38280574300063], [-63.02064633849789, 46.383381479661395], [-63.01471396106786, 46.383942665980605], [-63.01013730459534, 46.38437533282371], [-63.00609777310143, 46.384757037932125], [-62.99709815071936, 46.38560672793045], [-62.992160670874824, 46.38607253811226], [-62.996932709294384, 46.395057976902095], [-62.999999996772424, 46.39772917349401], [-63.00410856790214, 46.40130655492792], [-63.017852902513766, 46.40510547858762], [-63.0364821241263, 46.41006927903897], [-63.03929086329665, 46.41197202552466], [-63.04108606470275, 46.415111613909545], [-63.046574450005146, 46.424707337880726], [-63.04764521194081, 46.42677555830702], [-63.048871558250944, 46.42664176411387], [-63.04968938079495, 46.42655251532083], [-63.05103222664712, 46.42640598824096], [-63.056908951568374, 46.4257904911448], [-63.064941091516545, 46.42493589478115], [-63.07031258892332, 46.42436396129961], [-63.076345844815954, 46.423777100798596], [-63.07929499666208, 46.42540768264465], [-63.08376790431684, 46.42717103004914], [-63.088249370115925, 46.42892250916668], [-63.090853685754034, 46.429965608935696], [-63.092723499988615, 46.4307144566427], [-63.09718928791521, 46.43248885599583], [-63.101664111765146, 46.43428038480985], [-63.10617306381333, 46.436083019816785], [-63.110531011799914, 46.43786348872335], [-63.11480447714328, 46.439586451869346], [-63.11958546740203, 46.441537087016115], [-63.12421451085679, 46.44340753139607], [-63.129756266552356, 46.445641488133546], [-63.1331639184744, 46.44705229538386], [-63.133413750202, 46.44714671361295], [-63.190989638708274, 46.468695984504976], [-63.22729104168832, 46.48004406206122], [-63.236055619109976, 46.48248779035253], [-63.24651867393257, 46.485403655752464], [-63.250906023340974, 46.48661501911419], [-63.2558522372895, 46.48798036155163], [-63.27412645563871, 46.49302176716005], [-63.29945304890337, 46.500048530429474], [-63.29947227219146, 46.50005385551092], [-63.33123590025608, 46.508853809061094], [-63.36248830411126, 46.51278050734011], [-63.41166606302204, 46.518936713913405], [-63.41240928856315, 46.51902955318127], [-63.41574068150547, 46.519445550037894], [-63.41968420579679, 46.52045965132183], [-63.47888567773459, 46.53565852148067], [-63.48005744957941, 46.535958864453626], [-63.48273101616889, 46.53760036136982], [-63.500000015415175, 46.548198580940394], [-63.507984743058984, 46.55309626929673], [-63.54165640462588, 46.56325398822474], [-63.5600613720588, 46.56879922154829], [-63.56379248961326, 46.56992277401662], [-63.56498783038956, 46.5702826742866], [-63.58004989926173, 46.5735612689125], [-63.598260312208495, 46.57752127033789], [-63.631641922309484, 46.577483846676465], [-63.63493477140839, 46.57747926626235], [-63.64818994181426, 46.57745967185671], [-63.69216666749353, 46.57738098772427]]]}, "properties": {"FED_NUM": 11004, "ED_NAMEE": "Malpeque", "ED_NAMEF": "Malpeque", "REPORDER": "2023", "SHAPE_Leng": 259789.454017, "SHAPE_Area": 2514132006.53}}]}