{"type": "FeatureCollection", "features": [{"type": "Feature", "properties": {"NAME": "Northwest Territories"}, "geometry": {"type": "MultiPolygon", "coordinates": [[[[-129.84995871554395, 63.48094451527684], [-129.84995897516978, 63.48094499624281], [-129.8498823747293, 63.480911483454534], [-129.84995871554395, 63.48094451527684]]], [[[-129.85041809031205, 63.482849121117034], [-129.84992978786664, 63.48459886153338], [-129.85017927443548, 63.481404039310384], [-129.85041809031205, 63.482849121117034]]], [[[-129.84973144573408, 63.48561477676772], [-129.8497341422056, 63.48561298369813], [-129.85050473394014, 63.48586514373141], [-129.84973144573408, 63.48561477676772]]], [[[-129.85072475922706, 63.485946452677844], [-129.85116577267752, 63.48616027836459], [-129.85138831437575, 63.486338313161795], [-129.85072475922706, 63.485946452677844]]], [[[-129.852249146298, 63.487155913636045], [-129.85219496707683, 63.48710140462248], [-129.85224904554073, 63.48715525143804], [-129.852249146298, 63.487155913636045]]], [[[-129.86799796989956, 63.499738254798245], [-129.86797320242562, 63.49980774086627], [-129.86799586853837, 63.499737851297176], [-129.86799796989956, 63.499738254798245]]], [[[-102.00047302146785, 59.99922561566854], [-123.81022902535686, 60.00096684640315], [-123.99212646502242, 60.07482910128292], [-124.00486842497907, 60.1460138000991], [-124.12102035779075, 60.19865586981429], [-124.11169797054329, 60.236862663107296], [-124.23278808594235, 60.3710784909583], [-124.20417800040529, 60.45351411380486], [-124.42410589404659, 60.46587696122153], [-124.41793043680619, 60.534285033244615], [-124.60938468793911, 60.65228002891995], [-124.59273767702278, 60.672293863037915], [-124.63594055187181, 60.70245742823844], [-124.48296356060264, 60.7778434754533], [-124.54290771346392, 60.81885528582234], [-124.57936372312973, 60.95233924199506], [-124.82460784872968, 60.969207764391655], [-124.88333138605942, 60.92086726003683], [-124.86396766510491, 60.85572666393231], [-124.97942315496483, 60.85446531610289], [-125.04998016412708, 60.815750122226554], [-125.18387603682403, 60.84767532323739], [-125.32591878535106, 60.77680081782939], [-125.44078063952651, 60.77880096399195], [-125.57339312488433, 60.83187064182805], [-125.73220825164148, 60.80372238147193], [-125.72842407191406, 60.82981109543885], [-125.80044555729295, 60.849044799563195], [-125.84181976272042, 60.910556793340525], [-125.97675323444052, 60.84880065863133], [-126.00535583497634, 60.796039580727324], [-126.10815429554454, 60.81311797966712], [-126.1245193479308, 60.833240509852], [-126.09625242618988, 60.859657237523834], [-126.12568664504151, 60.865970611560385], [-126.26859283387898, 60.85345840458901], [-126.21967315714535, 60.81297302224986], [-126.26217666236266, 60.7802342602579], [-126.37507097087264, 60.767919741787324], [-126.52772522030936, 60.81304168720194], [-126.66352844184316, 60.7289543157778], [-126.70085907006077, 60.77629852304642], [-126.84790039063478, 60.76052093487626], [-126.87288344286425, 60.78488639308713], [-126.84693974182154, 60.81482577156252], [-126.9290004274087, 60.86126462776256], [-126.89755577380556, 60.88257408382125], [-126.9202651984922, 60.90855789161653], [-126.89841459636268, 60.95137018333544], [-126.95066929285933, 61.027471533198984], [-126.9247980319802, 61.05302691886197], [-127.01235404313022, 61.06591878868359], [-127.02839660720802, 61.03303527777162], [-127.08718872015884, 61.027713775761015], [-127.0762367072026, 61.05714629271013], [-127.10485839886988, 61.078208923750374], [-127.08240586621919, 61.089962613443916], [-127.12437438929457, 61.115489960675006], [-127.00553118748591, 61.17539243927026], [-127.02638244656413, 61.19163131742044], [-126.98668242614298, 61.223110328954014], [-127.04019382370423, 61.23085005601972], [-127.07780660736911, 61.32969545781336], [-127.05149078387943, 61.34605407707398], [-127.13587294942528, 61.38664307964013], [-127.13977388555871, 61.46289973200933], [-127.22203162227615, 61.46988871394836], [-127.27760315070678, 61.51190185616288], [-127.5193405150911, 61.495979308906506], [-127.65519366363019, 61.539846536707294], [-127.69771575914359, 61.59569931013838], [-127.79806518565157, 61.608123779263714], [-127.89334680469693, 61.68571348670678], [-128.07220429780202, 61.750643346154106], [-128.03474467075472, 61.77526632379138], [-128.05386352592575, 61.793777465846595], [-127.99407200305053, 61.809616050953814], [-128.01916608556922, 61.84422978088751], [-128.2156219479822, 61.854640961128545], [-128.2560950093413, 61.93679276307023], [-128.31980895985726, 61.95148849493667], [-128.38249206457505, 61.99119186375514], [-128.37537954892332, 62.024137954852726], [-128.49328687647204, 62.062201876337895], [-128.59762538105886, 62.141058584971596], [-128.6329455955581, 62.11101355768342], [-128.68274247004658, 62.133021341948904], [-128.7624511724584, 62.09973526060585], [-128.77423815373842, 62.04827862730738], [-128.85607910145958, 62.05890273963981], [-128.8257446297208, 62.08832168536458], [-128.89362039673014, 62.12149448055268], [-128.9398478809624, 62.098094429791054], [-128.99983215326677, 62.12873840313604], [-129.13735961893588, 62.106750488989675], [-129.2810726866773, 62.150810120889815], [-129.20048522872654, 62.21215057360378], [-129.30435800388284, 62.26944657206065], [-129.3165140335129, 62.317173188380295], [-129.21663189274858, 62.36941880043169], [-129.3139038083374, 62.396224975427856], [-129.2685241694283, 62.45110321059664], [-129.1781768793745, 62.46376800590436], [-129.18148840694286, 62.4879262824601], [-129.35615603014364, 62.53421424757763], [-129.42639160190942, 62.58469009427635], [-129.5583386691702, 62.57403365803821], [-129.4841155996932, 62.633152007776665], [-129.62129601741594, 62.70885493037825], [-129.69389343388772, 62.826889037959525], [-129.78533935578733, 62.87312698341824], [-129.71024545567593, 62.891370770898405], [-129.7406765558318, 62.92240638698201], [-129.60250854367536, 63.04335021920641], [-129.6288967705396, 63.07962224282894], [-129.8457794185297, 63.08328628623195], [-129.82930023857665, 63.12860400336169], [-129.88899230960266, 63.13812637288295], [-129.93287658692336, 63.20198059152257], [-129.9796170725512, 63.18846174207503], [-130.0388793949349, 63.246921539490096], [-130.19241333066438, 63.25157547034829], [-130.146682737816, 63.274311065538974], [-130.15869463583832, 63.30573385796239], [-130.07909985120233, 63.337369746958174], [-129.93949316222768, 63.34017535604143], [-129.94590759251344, 63.36344528269845], [-129.8970829429922, 63.381110949651976], [-129.9434536465317, 63.425949973956996], [-129.91552652500565, 63.467252313575095], [-129.81318664509286, 63.458137512026475], [-129.86790466403633, 63.500019073861544], [-129.9155786191111, 63.5301062894903], [-129.9159295986779, 63.56252725563278], [-129.9847770495767, 63.575386300977165], [-129.9446414987442, 63.60539622541578], [-130.1016823026912, 63.61521388534472], [-130.14273492902416, 63.69403417588776], [-130.289688109681, 63.65551757768682], [-130.36030578617766, 63.70492172214376], [-130.32594823431288, 63.73404978933041], [-130.2511905702667, 63.72100867375491], [-130.22078034228085, 63.732209315801335], [-130.23124694881648, 63.75509262078425], [-130.1452395592533, 63.75282241097385], [-130.1193434817937, 63.79475208790128], [-130.16349792519463, 63.81336975114683], [-130.135162352952, 63.856143951238515], [-130.25703263718475, 63.876849375071586], [-130.26573181158415, 63.84554290830862], [-130.3557128900988, 63.82379150392838], [-130.44475057207586, 63.858554397327836], [-130.42126606692338, 63.87667149820098], [-130.4850948825212, 63.91210059503097], [-130.77341921634311, 63.972066953960706], [-130.79586791969567, 63.99080276426866], [-130.7499847412541, 64.04124450683524], [-130.89347773462737, 64.04279225003634], [-130.89256619884142, 64.09319180602357], [-130.9676666258528, 64.10475158709333], [-130.95235068375652, 64.12183360255524], [-130.98410034206842, 64.13420867834691], [-130.85333251992745, 64.18128967248573], [-130.94703674326095, 64.19382476764765], [-130.9464534510717, 64.2382098467653], [-131.0805273588332, 64.27437255887114], [-131.03307225236742, 64.32408663664144], [-131.1074735545433, 64.35356717087122], [-131.08325395501683, 64.37220546162214], [-131.15032034912744, 64.41672559687284], [-131.39266812501558, 64.46330804909209], [-131.4571365947066, 64.44936472196828], [-131.4264053645769, 64.4189996980535], [-131.46008332100925, 64.41390928615097], [-131.44631958000957, 64.39861297626986], [-131.53027770092888, 64.38135289522415], [-131.85128784087698, 64.38066101082788], [-131.8710686893262, 64.38880844869772], [-131.8046791281509, 64.45423875817704], [-131.69078221833004, 64.48939537582395], [-131.71667480401834, 64.51641845737913], [-131.6892473673138, 64.53147356636651], [-131.84454407589732, 64.52908730801897], [-131.87106323246027, 64.54720306426591], [-131.83773814275247, 64.55901317773476], [-131.97599792453514, 64.61415862976993], [-132.0387573246283, 64.69890594424689], [-132.15979003781845, 64.70964813231792], [-132.4125671382866, 64.79808044443095], [-132.55659484788774, 64.77545928919679], [-132.63243102997401, 64.82835388194444], [-132.4537686725383, 64.90591773778426], [-132.51932364706306, 64.96345717903793], [-132.34251772666107, 65.03703389421717], [-132.33820151565422, 65.07333538691051], [-132.54412841815238, 65.0943527215914], [-132.56884765656375, 65.12760162416112], [-132.5169830317719, 65.17393493644663], [-132.5615960946721, 65.19750842880713], [-132.73912634157426, 65.16255065870105], [-132.7944488533574, 65.18836975042298], [-132.71423929254507, 65.20860366913399], [-132.78662109475098, 65.23392486570475], [-132.56172180142025, 65.28618621855004], [-132.52101135285682, 65.37271118184745], [-132.34474454865313, 65.44072283934644], [-132.26263336527876, 65.55623248453664], [-132.16550065545698, 65.61746323479113], [-132.30250882938415, 65.69132907601397], [-132.27559258168893, 65.70439022727432], [-132.28983139865238, 65.73128788141723], [-132.36738586466967, 65.7773590087799], [-132.56396484396893, 65.84156036304707], [-132.52977433971049, 65.89795736276704], [-132.3353320646062, 65.95199339091273], [-132.35462951675126, 65.96816253660666], [-132.33085632333854, 65.98728179972288], [-132.50418090805587, 65.96941375736674], [-132.54663085811217, 65.97743987996051], [-132.55554143130217, 66.02661863969473], [-132.65394057272349, 66.0220876814434], [-132.76608195970405, 65.98553503791611], [-132.88357543889637, 65.90082550093345], [-132.99687194798108, 65.93025970438237], [-132.91072133501314, 66.0048592679897], [-132.9830780037414, 66.04231262218606], [-133.26047929605082, 66.00097043494131], [-133.24517957074278, 65.97745487200551], [-133.36116027889625, 65.99057769834657], [-133.34801381360484, 65.95214648629748], [-133.42988344125362, 65.93735380636883], [-133.6318198623495, 65.95683152314298], [-133.64670056719427, 66.0078686864201], [-133.5630548843747, 66.02872816499692], [-133.621032714239, 66.05929565511829], [-133.70715332162703, 66.05415344257045], [-133.70355224620215, 66.08618164115911], [-133.56045679893927, 66.1535507631105], [-133.55040197506597, 66.19857030819884], [-133.59437560987826, 66.21924591061088], [-133.572204590502, 66.24410247777993], [-133.64570617689108, 66.29351043715923], [-133.80254164875993, 66.2919439067246], [-133.8477630609392, 66.31804656913819], [-133.77351379239045, 66.3651580809854], [-133.79550170851905, 66.40596008249611], [-133.74964904871408, 66.43852233926575], [-133.76582658800925, 66.45887860411243], [-133.71598815812385, 66.46936035176321], [-133.72830607172745, 66.50943416244425], [-133.5767411516994, 66.55775838711908], [-133.87943088539964, 66.68080720138647], [-134.01223754937135, 66.7039566041928], [-133.86694335874023, 66.71121978793106], [-133.7724304205003, 66.75123596112849], [-133.7936096187596, 66.76612854063681], [-133.76592982495444, 66.78421022863357], [-133.79803466808286, 66.78516387905256], [-133.80549621541044, 66.83523559554094], [-133.8746032715271, 66.85651397725782], [-133.8992614753751, 66.89865875224406], [-134.04618216869238, 66.91048250575426], [-134.10331740004312, 66.95328578002575], [-134.0621824081089, 66.9833219852762], [-133.8279792720738, 66.99987864496546], [-136.15957401406277, 66.99980472803787], [-136.2307143621057, 67.11487060533535], [-136.18963644932848, 67.1491770736519], [-136.23815007862513, 67.1816705361595], [-136.1259621105055, 67.23484257827658], [-136.11697387760972, 67.26379394516212], [-136.1454782405629, 67.27794209959751], [-136.0839412699559, 67.3075660265605], [-136.16731262172794, 67.36045837390705], [-136.13258444007417, 67.37014714301183], [-136.2214660648287, 67.40222930889564], [-136.1702575670571, 67.50795745868551], [-136.2231798894897, 67.53273189760587], [-136.20005798278754, 67.5800247193139], [-136.27908672260972, 67.63653414788175], [-136.44505887938166, 67.66118017844555], [-136.4506835931744, 69.18952178968425], [-136.9542843875581, 69.23031616189957], [-137.43287630840138, 69.32436370833878], [-137.53338595163137, 69.3523406982204], [-137.6950035939891, 69.46491645685096], [-136.58602210930732, 69.4045151881598], [-136.29198011095778, 69.61075848693238], [-135.84128217749947, 69.79614857611966], [-134.48067144940669, 69.98259359904065], [-133.9986636423128, 69.95424135101304], [-133.45081036072042, 69.78662912391455], [-132.56653845054893, 69.93894280013234], [-131.7981533274975, 70.1110785387971], [-131.00418803096971, 70.3683057445979], [-130.034044448648, 70.44999890022007], [-128.74091617858545, 70.77103109765703], [-127.620139187304, 71.46454604834014], [-126.44578449441208, 72.12750814496827], [-126.27727626146752, 72.326809430119], [-126.09264453383616, 72.42407294686693], [-126.02722838273912, 72.57833080563427], [-125.7857469905787, 72.68686219722684], [-125.76499997297972, 72.7248300172786], [-125.89152685115738, 72.81959562266262], [-125.86718296588887, 72.90114271811375], [-125.7206255383571, 72.97798384111505], [-125.50044035220634, 73.18483252037889], [-125.22714285504601, 73.31756840046589], [-125.19180259822208, 73.39048150491767], [-125.02191952392553, 73.52236874815559], [-125.24952412731714, 73.57344365891491], [-125.3972009539481, 73.65336660982739], [-125.42671195269676, 73.73818081029026], [-125.26728411353238, 73.93735848916536], [-125.30186311391152, 74.01853568908426], [-125.73644364890968, 74.21244907717183], [-125.79706578418862, 74.26530873823683], [-125.80059440948918, 74.32371247715916], [-125.63979042730313, 74.42632953484525], [-125.3709646832706, 74.4923678727292], [-124.50248920781976, 75.19747733095085], [-123.59839210190923, 75.86495460533983], [-123.82460210080471, 75.95169510548654], [-123.9104520988791, 76.04955400482592], [-123.81899110054327, 76.22345680519135], [-123.80297510036817, 76.38862400470735], [-123.66511410412504, 76.47129650517306], [-122.70261445266655, 76.6094433000104], [-119.75443945334476, 77.47585970013662], [-116.86038644822285, 77.78976440016662], [-116.57914445066743, 77.91858420011704], [-116.24387444842785, 78.00614940034328], [-115.85777944962722, 78.19294939978558], [-114.87945845040603, 78.48368720007271], [-113.71414234085525, 78.62616521570588], [-112.77195564893609, 78.7889529871218], [-110.00393944506864, 79.12842109819618], [-110.00138501853344, 70.00048828130662], [-112.50202202203783, 70.00054625375745], [-112.50202236606543, 69.91068689894708], [-112.65315992307949, 69.91114608380963], [-112.55681593118962, 69.89784326814679], [-112.58347343738251, 69.8823151308187], [-112.55883049103305, 69.86553046308106], [-112.55021690468256, 69.898039313408], [-112.31893671100704, 69.89644881526986], [-112.39044889171161, 69.89318518147047], [-112.3384325406337, 69.87962958380564], [-112.43530378729758, 69.84838364005924], [-112.50364685230957, 69.85422059587248], [-112.482915948773, 69.87686440684115], [-112.60676737132772, 69.8500047154423], [-112.58856224303295, 69.8786835393136], [-112.62757571606932, 69.88186479254811], [-112.65301359747342, 69.83359085391855], [-112.88246152585037, 69.83327617068191], [-112.88970156623556, 70.0004577630481], [-117.11691126528413, 70.00038380884385], [-117.14667414883627, 69.88887762120711], [-116.62835075287342, 69.63205279408136], [-117.95787143554472, 69.62986124413494], [-120.68296979350525, 69.55691301050734], [-120.68277770989339, 68.00028248581111], [-117.82806464467956, 67.231812597051], [-115.99992259775468, 66.68437953448239], [-114.11197670665281, 66.06907365449285], [-112.50000000000307, 65.50031280500033], [-110.66783905050961, 65.50032806449198], [-109.33440399273297, 64.83363342195963], [-105.64689821478123, 64.58087424697068], [-102.00059509146661, 64.23366546625239], [-102.00047302146785, 59.99922561566854]], [[-115.01034260148641, 60.5459688611424], [-115.00257873611764, 60.555793762339164], [-115.0165481569468, 60.57402801482633], [-115.01034260148641, 60.5459688611424]], [[-115.02658611134576, 60.53185588081228], [-115.01972198489185, 60.53409957814123], [-115.01605973915272, 60.538734022562416], [-115.02658611134576, 60.53185588081228]], [[-115.20562340876296, 60.439055425113104], [-115.19976043665011, 60.440876006716856], [-115.14733123733126, 60.47290039081488], [-115.20562340876296, 60.439055425113104]], [[-115.34889221190417, 60.38512420696754], [-115.34369923685313, 60.38355543041782], [-115.33971393016381, 60.388209191194996], [-115.34889221190417, 60.38512420696754]], [[-134.50000000002672, 68.16666412326553], [-134.4999999980073, 68.16666412377045], [-134.49999999944438, 68.2767657480878], [-134.50000000002672, 68.16666412326553]], [[-130.00000266631258, 67.00000000064728], [-130.00000000053873, 67.00000000028513], [-130.00000000053873, 67.00000000073179], [-130.00000266631258, 67.00000000064728]], [[-133.71571017147053, 68.36888163247912], [-134.49999999711102, 68.16666412399454], [-133.7039824155626, 68.36569241415218], [-133.71571017147053, 68.36888163247912]], [[-133.69553538638968, 68.36780442500742], [-134.66500995254444, 68.99891819211442], [-134.66504157298954, 68.99891818478169], [-133.7289751011602, 68.3777274997002], [-133.69553538638968, 68.36780442500742]], [[-115.82038815584178, 60.75356969403473], [-115.82615465849248, 60.75152348536174], [-115.82037084064198, 60.7535466487698], [-115.82038815584178, 60.75356969403473]], [[-115.8816538918939, 60.73182991724786], [-115.88242042604949, 60.73155791722768], [-115.86379667055924, 60.726772423288814], [-115.8816538918939, 60.73182991724786]], [[-115.87724204003193, 60.69764600433956], [-115.89765385042905, 60.707955339090034], [-115.89774397453986, 60.70794668637083], [-115.87724204003193, 60.69764600433956]], [[-115.89822375022554, 60.75302403696331], [-115.90079364648697, 60.832403747231645], [-115.90136741297783, 60.85012641124469], [-115.89822375022554, 60.75302403696331]], [[-115.77147657854387, 60.83573979785148], [-115.77918179604087, 60.80988411002341], [-115.8173412409415, 60.78541162322613], [-115.77074647630967, 60.81404443119887], [-115.77147657854387, 60.83573979785148]], [[-115.83554236792416, 60.7737388423212], [-115.83643992951073, 60.77316321644052], [-115.82136440254018, 60.754869007012346], [-115.83554236792416, 60.7737388423212]], [[-115.7232960383178, 60.84964831540562], [-115.72191732082163, 60.864310726094516], [-115.72478793784325, 60.865419536030764], [-115.7232960383178, 60.84964831540562]], [[-114.31638989338958, 62.41513044107546], [-114.31653121098496, 62.41522784274775], [-114.31682504800926, 62.41510428504559], [-114.31638989338958, 62.41513044107546]], [[-114.3199113315701, 62.415865317733974], [-114.32193496703853, 62.41602281826786], [-114.3214417241707, 62.41497337086903], [-114.3199113315701, 62.415865317733974]], [[-114.31632148693514, 62.4155776909586], [-114.31690280299233, 62.41639015125973], [-114.31735202230321, 62.41596346863947], [-114.31632148693514, 62.4155776909586]], [[-114.31768694616686, 62.415645347427244], [-114.31804013808734, 62.415309874640485], [-114.31632148693514, 62.4155776909586], [-114.31768694616686, 62.415645347427244]], [[-114.31869057398367, 62.416107488833546], [-114.31870680736726, 62.41608693516062], [-114.31844462152414, 62.416143050304115], [-114.31869057398367, 62.416107488833546]], [[-114.3185663714162, 62.416143540555716], [-114.31866179668854, 62.41614392480569], [-114.31868824855854, 62.41611043313826], [-114.3185663714162, 62.416143540555716]], [[-114.40144348237128, 62.45323944111029], [-114.41277649721283, 62.468023071221914], [-114.43330383328717, 62.471244811760165], [-114.40144348237128, 62.45323944111029]], [[-114.43333435148824, 62.91666793833369], [-114.43333435039484, 62.5000000005198], [-114.43330383328717, 62.471244811760165], [-114.43333435148824, 62.91666793833369]], [[-114.38916778449806, 62.45058441059941], [-114.37200265023029, 62.445168040531364], [-114.33333587668113, 62.4555549620321], [-114.38097582909327, 62.46303199487118], [-114.38916778449806, 62.45058441059941]], [[-114.3333358768297, 62.40834426922177], [-114.33333587664106, 62.249999999744034], [-114.33333587668113, 62.4555549620321], [-114.3333358768297, 62.40834426922177]], [[-114.38637971722632, 62.4413059788026], [-114.42469815087442, 62.442922983809844], [-114.3333358768297, 62.40834426922177], [-114.38637971722632, 62.4413059788026]], [[-114.37376478218692, 62.44469468512496], [-114.37350920521527, 62.44476333988196], [-114.38916778449806, 62.45058441059941], [-114.37376478218692, 62.44469468512496]], [[-114.51667022703104, 62.408332824221226], [-114.51667022665912, 62.46281051605713], [-114.51667022681931, 62.49999999960966], [-114.51667022703104, 62.408332824221226]], [[-114.33618632504562, 62.47486443974275], [-114.33331915513094, 62.480070816757056], [-114.3373844791228, 62.47479403536176], [-114.33618632504562, 62.47486443974275]], [[-114.30053257234071, 62.408673622054096], [-114.30060824654404, 62.40859917725263], [-114.30043506278446, 62.40869161144084], [-114.30053257234071, 62.408673622054096]], [[-114.3002039781491, 62.408734243886684], [-114.3003396076311, 62.40870922181398], [-114.30033815255457, 62.40868941603086], [-114.3002039781491, 62.408734243886684]], [[-114.29690981288263, 62.40952674603307], [-114.29684290408017, 62.409411359954774], [-114.29652825820939, 62.40945411095065], [-114.29690981288263, 62.40952674603307]], [[-114.29680158610519, 62.40934010596544], [-114.29674314797712, 62.409364480491526], [-114.29681364245965, 62.40936089748179], [-114.29680158610519, 62.40934010596544]], [[-114.29687291900389, 62.4102448319568], [-114.29683175737011, 62.410135598932605], [-114.29611157606601, 62.41031939667271], [-114.29687291900389, 62.4102448319568]], [[-114.29677406078491, 62.40998248614506], [-114.2966282238535, 62.41005665238031], [-114.29679477415591, 62.410037454423716], [-114.29677406078491, 62.40998248614506]], [[-114.29929778695545, 62.41036192816224], [-114.29932708350181, 62.41019062039083], [-114.29924189347707, 62.41036741397294], [-114.29929778695545, 62.41036192816224]], [[-114.2993620005515, 62.41011815756071], [-114.2999457735166, 62.41015693603778], [-114.29936850069122, 62.41010466791814], [-114.2993620005515, 62.41011815756071]], [[-114.3006341962753, 62.41021926802628], [-114.3004822261449, 62.410245678299525], [-114.30069511483012, 62.4102247837862], [-114.3006341962753, 62.41021926802628]], [[-114.31200907132987, 62.41051512438161], [-114.31203032813796, 62.410399795675374], [-114.31198274289947, 62.41050903574057], [-114.31200907132987, 62.41051512438161]], [[-114.31182261893012, 62.41047200590789], [-114.31192251492563, 62.410427657686384], [-114.3117847737552, 62.4104632539359], [-114.31182261893012, 62.41047200590789]], [[-114.31452029342536, 62.41083518543679], [-114.31452052779849, 62.41083412929177], [-114.31440105755357, 62.41083445139877], [-114.31452029342536, 62.41083518543679]], [[-114.31514328632062, 62.41153948540281], [-114.31508314306963, 62.41149477994817], [-114.31511913339487, 62.41154054809554], [-114.31514328632062, 62.41153948540281]], [[-114.31259425152815, 62.4117765489539], [-114.31287940634155, 62.411782798195524], [-114.31291227064641, 62.41171762185608], [-114.31259425152815, 62.4117765489539]], [[-114.30527291903807, 62.412433749667215], [-114.28967924657134, 62.41626995313086], [-114.3065570650634, 62.42140628442415], [-114.30527291903807, 62.412433749667215]], [[-114.28896497452273, 62.41605258274754], [-114.30525547016909, 62.412311831613984], [-114.30475119233559, 62.40878836130848], [-114.28896497452273, 62.41605258274754]], [[-114.28985327168321, 62.41468043907189], [-114.28958306936944, 62.41472181032243], [-114.289961878396, 62.414695239778275], [-114.28985327168321, 62.41468043907189]], [[-114.31173049388289, 62.41466948331396], [-114.31182285034522, 62.414730624637706], [-114.31217048618807, 62.41475299684658], [-114.31173049388289, 62.41466948331396]], [[-114.31557729866716, 62.4160780629699], [-114.31579847650262, 62.416042308680794], [-114.31580230213397, 62.41600441091927], [-114.31557729866716, 62.4160780629699]], [[-114.28908289165975, 62.41643344060448], [-114.28909953161303, 62.41642346269402], [-114.28907062667406, 62.416439298346134], [-114.28908289165975, 62.41643344060448]], [[-114.31606990484518, 62.41664061285798], [-114.31593626857922, 62.41659737998305], [-114.31476467788997, 62.41685903774941], [-114.31606990484518, 62.41664061285798]], [[-114.3154584715065, 62.41644280711363], [-114.31513155335695, 62.41633704531783], [-114.31476467788997, 62.41685903774941], [-114.3154584715065, 62.41644280711363]]]]}}]}