{"type": "FeatureCollection", "features": [{"type": "Feature", "properties": {"NAME": "Deh Cho"}, "geometry": {"type": "Polygon", "coordinates": [[[-114.51667022651736, 62.249999999767766], [-114.51667022753546, 61.333332062199915], [-115.03976440341921, 60.88237381056978], [-114.96112823490445, 60.84255981426052], [-114.97702789245376, 60.83709716833153], [-114.93971252508142, 60.77959823628418], [-114.96088409454013, 60.762962342390296], [-114.90643310638517, 60.71365356451963], [-114.9438018804647, 60.683372498390085], [-114.9493637088353, 60.6480712893932], [-114.89604186924505, 60.62753677384828], [-114.90040588301794, 60.614620208870456], [-114.84619903560399, 60.60403060862265], [-114.85136413597867, 60.59499740601187], [-114.900077818709, 60.570163726814386], [-115.0165481569468, 60.57402801482633], [-115.00966644288687, 60.54291152998479], [-115.04959869416327, 60.51681899975272], [-115.13683318986956, 60.49581909196976], [-115.14733123733126, 60.47290039081488], [-115.22924804616834, 60.42533874544475], [-115.34889221190417, 60.38512420696754], [-115.24150848344117, 60.3526840212594], [-115.10872650161633, 60.37036895658882], [-115.10880279558961, 60.35300064104888], [-115.0907974247733, 60.34658050522623], [-115.1026382444389, 60.34247589128817], [-115.0582351679191, 60.3410720831617], [-115.079566955956, 60.329570769731504], [-115.07149505637757, 60.32028579677583], [-115.08843231127979, 60.29999923734636], [-115.00000000088302, 60.29986190848901], [-115.0000000002388, 59.99815750112363], [-119.16705589915546, 59.99990239205877], [-119.166664124695, 62.24999999992541], [-114.51667022651736, 62.249999999767766]], [[-116.10805186703153, 60.63715754139479], [-115.97837570712981, 60.642888940990765], [-116.01246668408402, 60.664894668460185], [-115.97224037851416, 60.657930787747624], [-115.97008832470354, 60.67393044397422], [-115.93897638362023, 60.669809697590566], [-115.87698085396126, 60.69776377437095], [-115.89775265953067, 60.70800405091348], [-115.86384993904004, 60.711200816362094], [-115.86379667055924, 60.726772423288814], [-115.88209636205235, 60.731955232945715], [-115.82037084064198, 60.7535466487698], [-115.83579324326277, 60.774072739054226], [-115.77074647630967, 60.81404443119887], [-115.77148587055676, 60.836015914835244], [-115.72219979190926, 60.849958432072775], [-115.72191732082163, 60.864310726094516], [-115.75136242845691, 60.875684248815936], [-115.90136741297783, 60.85012641124469], [-115.89822375022554, 60.75302403696331], [-116.10805186703153, 60.63715754139479]]]}}, {"type": "Feature", "properties": {"NAME": "Frame Lake"}, "geometry": {"type": "Polygon", "coordinates": [[[-114.37664032069911, 62.469619751204156], [-114.38916778449806, 62.45058441059941], [-114.3689956660974, 62.44287109359678], [-114.41181182914512, 62.444881439209105], [-114.40144348237128, 62.45323944111029], [-114.41324615470275, 62.468002319366434], [-114.37664032069911, 62.469619751204156]]]}}, {"type": "Feature", "properties": {"NAME": "Great Slave"}, "geometry": {"type": "Polygon", "coordinates": [[[-114.38637971722632, 62.4413059788026], [-114.33333587668113, 62.4555549620321], [-114.3333358768297, 62.40834426922177], [-114.38637971722632, 62.4413059788026]]]}}, {"type": "Feature", "properties": {"NAME": "Hay River North"}, "geometry": {"type": "Polygon", "coordinates": [[[-115.72478793788574, 60.86541953647992], [-115.72325915280526, 60.849258389980875], [-115.77203910806347, 60.83558208293784], [-115.77918179604087, 60.80988411002341], [-115.90079364648697, 60.832403747231645], [-115.90136741297783, 60.85012641124469], [-115.75136242845691, 60.875684248815936], [-115.72478793788574, 60.86541953647992]]]}}, {"type": "Feature", "properties": {"NAME": "Hay River South"}, "geometry": {"type": "Polygon", "coordinates": [[[-115.90079364648697, 60.832403747231645], [-115.77918179604087, 60.80988411002341], [-115.83643992951073, 60.77316321644052], [-115.82031506370589, 60.75359563033815], [-115.88242042604949, 60.73155791722768], [-115.86379667055924, 60.726772423288814], [-115.86384993904004, 60.711200816362094], [-115.89774397453986, 60.70794668637083], [-115.87721429528335, 60.697632064687525], [-115.93897638362023, 60.669809697590566], [-115.97008832470354, 60.67393044397422], [-115.97224037851416, 60.657930787747624], [-116.01246668408402, 60.664894668460185], [-115.97837570712981, 60.642888940990765], [-116.10805186703153, 60.63715754139479], [-115.89822375022554, 60.75302403696331], [-115.90079364648697, 60.832403747231645]]]}}, {"type": "Feature", "properties": {"NAME": "Inuvik Boot Lake"}, "geometry": {"type": "Polygon", "coordinates": [[[-132.9999999998533, 68.99999999989657], [-133.00000000045767, 68.16666412382084], [-134.50000000002672, 68.16666412326553], [-133.69553538638968, 68.36780442500742], [-134.66667175285832, 68.99999999982025], [-132.9999999998533, 68.99999999989657]]]}}, {"type": "Feature", "properties": {"NAME": "Inuvik Twin Lakes"}, "geometry": {"type": "Polygon", "coordinates": [[[-134.66667175077123, 69.00000000031882], [-133.7289751011602, 68.3777274997002], [-133.69558140934734, 68.36340786430335], [-133.71571017147053, 68.36888163247912], [-134.4999999980073, 68.16666412376345], [-134.50000000235812, 68.4999999990554], [-134.99999999943174, 68.50000000022177], [-134.9999999997628, 68.99999999957697], [-134.66667175077123, 69.00000000031882]]]}}, {"type": "Feature", "properties": {"NAME": "Kam Lake"}, "geometry": {"type": "Polygon", "coordinates": [[[-114.40748596240338, 62.4404487623779], [-114.3333358768297, 62.40834426922177], [-114.51667022703104, 62.408332824221226], [-114.43829593838186, 62.43780300087272], [-114.40748596240338, 62.4404487623779]]]}}, {"type": "Feature", "properties": {"NAME": "Mackenzie Delta"}, "geometry": {"type": "Polygon", "coordinates": [[[-132.9999999998533, 68.99999999989657], [-129.99999999724668, 68.99999999985731], [-129.9999999985284, 67.00000000073184], [-136.15957401406277, 66.99980472803787], [-136.178453497171, 67.03768211815716], [-136.2144775398414, 67.0644683842844], [-136.20201110783157, 67.08106994590776], [-136.2307143621057, 67.11487060533535], [-136.18963644932848, 67.1491770736519], [-136.22651672355792, 67.15702056949036], [-136.23815007862513, 67.1816705361595], [-136.1851043676199, 67.19192505013821], [-136.1259621105055, 67.23484257827658], [-136.11697387760972, 67.26379394516212], [-136.1454782405629, 67.27794209959751], [-136.09565734962737, 67.28453826906149], [-136.0839412699559, 67.3075660265605], [-136.12646484475567, 67.32038879380448], [-136.16731262172794, 67.36045837390705], [-136.13258444007417, 67.37014714301183], [-136.2214660648287, 67.40222930889564], [-136.17915345786986, 67.4573600411499], [-136.19970760708867, 67.49014585792118], [-136.1702575670571, 67.50795745868551], [-136.2231798894897, 67.53273189760587], [-136.2036187518089, 67.54605262139106], [-136.20005798278754, 67.5800247193139], [-136.23491006786168, 67.59902145917926], [-136.2276166875121, 67.6183621530935], [-136.27908672260972, 67.63653414788175], [-136.42375612525987, 67.64484206092403], [-136.44505887938166, 67.66118017844555], [-136.43049910332667, 67.69582279201033], [-136.44834899889682, 67.70888519249691], [-136.44834899868505, 68.99850463904262], [-134.9999999997628, 68.99999999957697], [-134.99999999943174, 68.50000000022177], [-134.4999999982637, 68.50000000005024], [-134.50000000002672, 68.16666412326553], [-133.00000000045767, 68.16666412382084], [-132.9999999998533, 68.99999999989657]]]}}, {"type": "Feature", "properties": {"NAME": "Monfwi"}, "geometry": {"type": "Polygon", "coordinates": [[[-115.99992259775468, 66.68437953448239], [-114.11197670665281, 66.06907365449285], [-112.50000000000307, 65.50031280500033], [-112.49999999996928, 62.919052124219206], [-114.43333435148824, 62.91666793833369], [-114.43333435039484, 62.5000000005198], [-114.51667022681931, 62.49999999960966], [-114.51667022703104, 62.408332824221226], [-114.3333358768297, 62.40834426922177], [-114.33333587664106, 62.249999999291695], [-120.00000000075305, 62.24999999943311], [-120.0000000000019, 64.99999999944723], [-115.99999999981956, 64.99999999963276], [-115.99992259775468, 66.68437953448239]]]}}, {"type": "Feature", "properties": {"NAME": "Nahendeh"}, "geometry": {"type": "Polygon", "coordinates": [[[-119.9999999997687, 64.16666412302042], [-120.00000000075305, 62.24999999943311], [-119.166664124695, 62.24999999992541], [-119.16666412354441, 59.99990463286318], [-123.81022902535686, 60.00096684640315], [-123.99212646502242, 60.07482910128292], [-124.00486842497907, 60.1460138000991], [-124.0563690779297, 60.153591716484], [-124.08648681709357, 60.192150115872465], [-124.12102035779075, 60.19865586981429], [-124.11169797054329, 60.236862663107296], [-124.14528082614457, 60.257069098847396], [-124.19596099969743, 60.31909942669796], [-124.21125030590837, 60.36358642587058], [-124.23278808594235, 60.3710784909583], [-124.21251446808725, 60.39712853802087], [-124.20417800040529, 60.45351411380486], [-124.42410589404659, 60.46587696122153], [-124.41793043680619, 60.534285033244615], [-124.45253753666316, 60.537044525089115], [-124.49978023356583, 60.59449581175004], [-124.60938468793911, 60.65228002891995], [-124.59273767702278, 60.672293863037915], [-124.62061309756473, 60.67519760072011], [-124.63594055187181, 60.70245742823844], [-124.6013328465055, 60.705094265902645], [-124.48296356060264, 60.7778434754533], [-124.54290771346392, 60.81885528582234], [-124.5331497200637, 60.8386764524493], [-124.55288032580668, 60.85538266102084], [-124.53995543277524, 60.883584031010244], [-124.58549074862432, 60.93000186644746], [-124.57936372312973, 60.95233924199506], [-124.63309383959928, 60.96420284243988], [-124.66548919758836, 60.944808959869256], [-124.74695587139315, 60.94776916486321], [-124.82460784872968, 60.969207764391655], [-124.83441924978828, 60.93981170649762], [-124.88333138605942, 60.92086726003683], [-124.86396766510491, 60.85572666393231], [-124.97942315496483, 60.85446531610289], [-125.04998016412708, 60.815750122226554], [-125.08608384326048, 60.84388175619037], [-125.18387603682403, 60.84767532323739], [-125.23142242447202, 60.81177139237461], [-125.273024794707, 60.81061192492457], [-125.28183746293043, 60.784832000700355], [-125.32591878535106, 60.77680081782939], [-125.44078063952651, 60.77880096399195], [-125.54539690530322, 60.80948894271929], [-125.57339312488433, 60.83187064182805], [-125.67072145524622, 60.79559170693168], [-125.73220825164148, 60.80372238147193], [-125.72842407191406, 60.82981109543885], [-125.80044555729295, 60.849044799563195], [-125.84181976272042, 60.910556793340525], [-125.97675323444052, 60.84880065863133], [-126.00535583497634, 60.796039580727324], [-126.10815429554454, 60.81311797966712], [-126.1245193479308, 60.833240509852], [-126.09625242618988, 60.859657237523834], [-126.12568664504151, 60.865970611560385], [-126.26859283387898, 60.85345840458901], [-126.21967315714535, 60.81297302224986], [-126.26217666236266, 60.7802342602579], [-126.32500375452096, 60.78849031171415], [-126.37507097087264, 60.767919741787324], [-126.52772522030936, 60.81304168720194], [-126.62255859403288, 60.77237701415686], [-126.66352844184316, 60.7289543157778], [-126.70085907006077, 60.77629852304642], [-126.84790039063478, 60.76052093487626], [-126.87288344286425, 60.78488639308713], [-126.84693974182154, 60.81482577156252], [-126.8737960522591, 60.827688280927354], [-126.87413024992507, 60.84552002019758], [-126.9290004274087, 60.86126462776256], [-126.89755577380556, 60.88257408382125], [-126.9202651984922, 60.90855789161653], [-126.89841459636268, 60.95137018333544], [-126.95066929285933, 61.027471533198984], [-126.9247980319802, 61.05302691886197], [-127.01235404313022, 61.06591878868359], [-127.02839660720802, 61.03303527777162], [-127.08718872015884, 61.027713775761015], [-127.0762367072026, 61.05714629271013], [-127.10485839886988, 61.078208923750374], [-127.08240586621919, 61.089962613443916], [-127.12437438929457, 61.115489960675006], [-127.1118271329156, 61.14180820111397], [-127.00553118748591, 61.17539243927026], [-127.02638244656413, 61.19163131742044], [-126.98668242614298, 61.223110328954014], [-127.04019382370423, 61.23085005601972], [-127.04470422659936, 61.294724302863834], [-127.07780660736911, 61.32969545781336], [-127.05149078387943, 61.34605407707398], [-127.07107698090364, 61.373095602913246], [-127.11066390702662, 61.36996057811023], [-127.13587294942528, 61.38664307964013], [-127.11802010020209, 61.40500379012908], [-127.13539935604618, 61.419054189389676], [-127.13977388555871, 61.46289973200933], [-127.22203162227615, 61.46988871394836], [-127.23506164532667, 61.49774932830795], [-127.27760315070678, 61.51190185616288], [-127.5193405150911, 61.495979308906506], [-127.58350372381324, 61.531471252284845], [-127.65519366363019, 61.539846536707294], [-127.69771575914359, 61.59569931013838], [-127.79806518565157, 61.608123779263714], [-127.85477447548813, 61.63568115226793], [-127.84803821452662, 61.653876529650724], [-127.89334680469693, 61.68571348670678], [-127.94805908277586, 61.69319152861928], [-128.01091003371215, 61.73331069943907], [-128.07220429780202, 61.750643346154106], [-128.03474467075472, 61.77526632379138], [-128.05386352592575, 61.793777465846595], [-127.99407200305053, 61.809616050953814], [-128.027595216269, 61.82786025890956], [-128.01916608556922, 61.84422978088751], [-128.07333768836295, 61.86586352469151], [-128.1588287355911, 61.861286162744115], [-128.1808013913903, 61.84107971165469], [-128.2156219479822, 61.854640961128545], [-128.20515622767283, 61.871123375894356], [-128.23177117056395, 61.879802531115466], [-128.22148132356202, 61.887252807713594], [-128.2648982723936, 61.92567251399576], [-128.2560950093413, 61.93679276307023], [-128.31980895985726, 61.95148849493667], [-128.32983455878852, 61.97261671010608], [-128.38249206457505, 61.99119186375514], [-128.37537954892332, 62.024137954852726], [-128.42811584370227, 62.03190994275502], [-128.46038818367194, 62.062793731659816], [-128.49328687647204, 62.062201876337895], [-128.5196372380124, 62.10291581894276], [-128.59762538105886, 62.141058584971596], [-128.6134154096309, 62.134555197123575], [-128.60122680708068, 62.12478637701234], [-128.6329455955581, 62.11101355768342], [-128.68274247004658, 62.133021341948904], [-128.70990852617365, 62.1218110031511], [-128.71319379653036, 62.101634194936274], [-128.7624511724584, 62.09973526060585], [-128.77423815373842, 62.04827862730738], [-128.80403888958884, 62.07223758219243], [-128.85607910145958, 62.05890273963981], [-128.8257446297208, 62.08832168536458], [-128.89362039673014, 62.12149448055268], [-128.9398478809624, 62.098094429791054], [-128.99983215326677, 62.12873840313604], [-129.13735961893588, 62.106750488989675], [-129.18455989050864, 62.11430810173758], [-129.2299984891619, 62.147470863396464], [-129.2810726866773, 62.150810120889815], [-129.27827744520908, 62.1648100251653], [-129.2143924679588, 62.18551992096185], [-129.20048522872654, 62.21215057360378], [-129.25686645445316, 62.2293090817634], [-129.25120544487157, 62.23960876401791], [-129.30435800388284, 62.26944657206065], [-129.2969512934669, 62.31145858663009], [-129.3165140335129, 62.317173188380295], [-129.28044722722507, 62.32152328089329], [-129.25769451847592, 62.37028102999084], [-129.21663189274858, 62.36941880043169], [-129.3139038083374, 62.396224975427856], [-129.26838684068525, 62.42731475826575], [-129.28875732287537, 62.43518829403203], [-129.2685241694283, 62.45110321059664], [-129.1781768793745, 62.46376800590436], [-129.19371032659663, 62.474639892856715], [-129.18148840694286, 62.4879262824601], [-129.35615603014364, 62.53421424757763], [-129.42639160190942, 62.58469009427635], [-129.5583386691702, 62.57403365803821], [-129.5540842888466, 62.5903661138193], [-129.51985839852932, 62.59817637608386], [-129.4841155996932, 62.633152007776665], [-129.5290374757994, 62.640300750784206], [-129.53674316433273, 62.6590270994202], [-129.51676940909707, 62.66928100567404], [-129.55958557126004, 62.693584442565935], [-129.62129601741594, 62.70885493037825], [-129.64045938413784, 62.73610513130814], [-129.6297981689014, 62.751098245504835], [-129.64607238752694, 62.75497055044243], [-129.63289558593434, 62.763839106892355], [-129.70245706364045, 62.808711665753314], [-129.69389343388772, 62.826889037959525], [-129.74192809998672, 62.832778931044196], [-129.78533935578733, 62.87312698341824], [-129.76579553818033, 62.89574416484541], [-129.71024545567593, 62.891370770898405], [-129.7406765558318, 62.92240638698201], [-129.66325378508458, 62.972454070353955], [-129.68037414668672, 62.98912048331447], [-129.6538543697037, 63.01959610023699], [-129.60250854367536, 63.04335021920641], [-129.6288967705396, 63.07962224282894], [-129.70951843356164, 63.063636780081666], [-129.7871398925849, 63.07097625794877], [-129.79209793661434, 63.086505112983716], [-129.8226991631575, 63.09311207302918], [-129.8457794185297, 63.08328628623195], [-129.86210746290138, 63.092586198812796], [-129.82930023857665, 63.12860400336169], [-129.88899230960266, 63.13812637288295], [-129.9190521247039, 63.16175842229008], [-129.90553849420783, 63.18598658015998], [-129.93287658692336, 63.20198059152257], [-129.9796170725512, 63.18846174207503], [-130.02913707474383, 63.21351513564536], [-130.0212658574649, 63.23465263287257], [-130.0388793949349, 63.246921539490096], [-130.19241333066438, 63.25157547034829], [-130.146682737816, 63.274311065538974], [-130.1677093512235, 63.2865867610821], [-130.15869463583832, 63.30573385796239], [-130.0923123943153, 63.317991400222695], [-130.07909985120233, 63.337369746958174], [-130.0168751467988, 63.32039750284984], [-129.93949316222768, 63.34017535604143], [-129.94590759251344, 63.36344528269845], [-129.8970829429922, 63.381110949651976], [-129.9434536465317, 63.425949973956996], [-129.9083557121988, 63.44282150274446], [-129.91552652500565, 63.467252313575095], [-129.81318664509286, 63.458137512026475], [-129.86790466403633, 63.500019073861544], [-125.00000000101774, 63.50000000008597], [-125.00000000094802, 64.16666412313617], [-119.9999999997687, 64.16666412302042]]]}}, {"type": "Feature", "properties": {"NAME": "Nunakput"}, "geometry": {"type": "Polygon", "coordinates": [[[-110.00393944506864, 79.12842109819618], [-110.00138501853344, 70.00048828130662], [-112.50202202203783, 70.00054625375745], [-112.50202236606543, 69.91068689894708], [-112.65315992307949, 69.91114608380963], [-112.55681593118962, 69.89784326814679], [-112.58347343738251, 69.8823151308187], [-112.55640096329883, 69.88477332538217], [-112.56670910244586, 69.87628671371425], [-112.55883049103305, 69.86553046308106], [-112.55021690468256, 69.898039313408], [-112.49446891957888, 69.89866492435854], [-112.48649620241574, 69.88694617392673], [-112.44000267480796, 69.90186926964091], [-112.3599709059758, 69.90601403571844], [-112.33729278998351, 69.90258977881747], [-112.31893671100704, 69.89644881526986], [-112.39044889171161, 69.89318518147047], [-112.3384325406337, 69.87962958380564], [-112.43065874379758, 69.86385773867359], [-112.41294545989001, 69.85479729931185], [-112.43530378729758, 69.84838364005924], [-112.47944208884017, 69.85194890417621], [-112.44764307071594, 69.86625701072253], [-112.4543383034072, 69.86861273875822], [-112.50364685230957, 69.85422059587248], [-112.482915948773, 69.87686440684115], [-112.51514457955777, 69.8512940133438], [-112.60676737132772, 69.8500047154423], [-112.58856224303295, 69.8786835393136], [-112.6153643063701, 69.86164710217321], [-112.60773491088835, 69.87930152022373], [-112.62848686559038, 69.86845252224973], [-112.63894676521105, 69.87729498892517], [-112.62561058227745, 69.87262580031552], [-112.62757571606932, 69.88186479254811], [-112.64073200161123, 69.87815542182359], [-112.65082348084678, 69.86832007802917], [-112.62906669769089, 69.86484381691126], [-112.65202354761551, 69.85259688862838], [-112.65301359747342, 69.83359085391855], [-112.88246152585037, 69.83327617068191], [-112.88970156623556, 70.0004577630481], [-117.11691126528413, 70.00038380884385], [-117.14667414883627, 69.88887762120711], [-116.62835075287342, 69.63205279408136], [-116.83476553554877, 69.64776706409882], [-117.95787143554472, 69.62986124413494], [-120.68296979350525, 69.55691301050734], [-120.68277770989339, 68.00028248581111], [-120.00306564136383, 67.82629476034036], [-120.00354766787892, 67.75000000001573], [-129.9999999990484, 67.74999999982356], [-129.99999999942685, 68.99999999941305], [-136.44834899868505, 68.99850463904262], [-136.4506835931744, 69.18952178968425], [-136.5944058503795, 69.18867492724911], [-136.9542843875581, 69.23031616189957], [-137.43287630840138, 69.32436370833878], [-137.53338595163137, 69.3523406982204], [-137.59945650978173, 69.41082000751037], [-137.6950035939891, 69.46491645685096], [-136.58602210930732, 69.4045151881598], [-136.29198011095778, 69.61075848693238], [-135.84128217749947, 69.79614857611966], [-135.69673117564412, 69.82504307599389], [-135.11660944983143, 69.88245750035057], [-134.48067144940669, 69.98259359904065], [-134.25878845133323, 69.98393280030096], [-133.9986636423128, 69.95424135101304], [-133.45081036072042, 69.78662912391455], [-132.75931437422588, 69.92281741117993], [-132.56653845054893, 69.93894280013234], [-131.7981533274975, 70.1110785387971], [-131.00418803096971, 70.3683057445979], [-130.7496850317866, 70.40731684499234], [-130.48043945037082, 70.40754500042753], [-130.034044448648, 70.44999890022007], [-128.74091617858545, 70.77103109765703], [-127.620139187304, 71.46454604834014], [-126.55193500414775, 72.08427280825876], [-126.44578449441208, 72.12750814496827], [-126.42583391027942, 72.18136567531033], [-126.33072911581614, 72.24432041782094], [-126.27727626146752, 72.326809430119], [-126.09264453383616, 72.42407294686693], [-126.06381214759584, 72.53152491008139], [-126.02722838273912, 72.57833080563427], [-125.95500838294699, 72.62179490598261], [-125.7857469905787, 72.68686219722684], [-125.76499997297972, 72.7248300172786], [-125.84834697424307, 72.76957251667048], [-125.89152685115738, 72.81959562266262], [-125.8931048521509, 72.8612261226986], [-125.86718296588887, 72.90114271811375], [-125.7206255383571, 72.97798384111505], [-125.50044035220634, 73.18483252037889], [-125.37252335000662, 73.26049439544435], [-125.22714285504601, 73.31756840046589], [-125.19180259822208, 73.39048150491767], [-125.02191952392553, 73.52236874815559], [-125.24952412731714, 73.57344365891491], [-125.3972009539481, 73.65336660982739], [-125.42737195236906, 73.69446891005259], [-125.42671195269676, 73.73818081029026], [-125.26728411353238, 73.93735848916536], [-125.30186311391152, 74.01853568908426], [-125.73644364890968, 74.21244907717183], [-125.79706578418862, 74.26530873823683], [-125.80059440948918, 74.32371247715916], [-125.74650406863714, 74.37649254499617], [-125.63979042730313, 74.42632953484525], [-125.3709646832706, 74.4923678727292], [-124.50248920781976, 75.19747733095085], [-123.59839210190923, 75.86495460533983], [-123.82460210080471, 75.95169510548654], [-123.89166310131532, 76.01036760508728], [-123.9104520988791, 76.04955400482592], [-123.81899110054327, 76.22345680519135], [-123.80297510036817, 76.38862400470735], [-123.75413610165461, 76.43179570446797], [-123.66511410412504, 76.47129650517306], [-123.40491744970876, 76.52628939989242], [-122.70261445266655, 76.6094433000104], [-121.06857645112936, 77.10943780000103], [-119.75443945334476, 77.47585970013662], [-119.17296944830811, 77.5547999995951], [-118.53723845208677, 77.59521280019317], [-117.66538645157033, 77.70016390008142], [-117.31128644903595, 77.72533559979281], [-116.86038644822285, 77.78976440016662], [-116.57914445066743, 77.91858420011704], [-116.24387444842785, 78.00614940034328], [-115.85777944962722, 78.19294939978558], [-114.87945845040603, 78.48368720007271], [-113.71414234085525, 78.62616521570588], [-112.77195564893609, 78.7889529871218], [-110.00393944506864, 79.12842109819618]]]}}, {"type": "Feature", "properties": {"NAME": "Range Lake"}, "geometry": {"type": "Polygon", "coordinates": [[[-114.43333435039484, 62.5000000005198], [-114.43330383328717, 62.471244811760165], [-114.40144348237128, 62.45323944111029], [-114.41326141435013, 62.44356918315257], [-114.44402191581985, 62.44183115099721], [-114.47278594903419, 62.47315979059023], [-114.51667022665912, 62.46281051605713], [-114.51667022681931, 62.49999999960966], [-114.43333435039484, 62.5000000005198]]]}}, {"type": "Feature", "properties": {"NAME": "Sahtu"}, "geometry": {"type": "MultiPolygon", "coordinates": [[[[-120.00306564136383, 67.82629476034036], [-117.82806464467956, 67.231812597051], [-115.99992259775468, 66.68437953448239], [-115.99999999981956, 64.99999999963276], [-120.0000000000019, 64.99999999944723], [-119.9999999997687, 64.16666412302042], [-125.00000000094802, 64.16666412313617], [-125.00000000101774, 63.50000000008597], [-129.86790466403633, 63.500019073861544], [-129.9155786191111, 63.5301062894903], [-129.9159295986779, 63.56252725563278], [-129.9847770495767, 63.575386300977165], [-129.9446414987442, 63.60539622541578], [-130.02265625467265, 63.62048304408505], [-130.1016823026912, 63.61521388534472], [-130.09503173798865, 63.63241958615247], [-130.14578797153757, 63.66358385894074], [-130.14273492902416, 63.69403417588776], [-130.289688109681, 63.65551757768682], [-130.36030578617766, 63.70492172214376], [-130.32594823431288, 63.73404978933041], [-130.2511905702667, 63.72100867375491], [-130.22078034228085, 63.732209315801335], [-130.23124694881648, 63.75509262078425], [-130.1452395592533, 63.75282241097385], [-130.15290832586396, 63.76111602762104], [-130.1193434817937, 63.79475208790128], [-130.16349792519463, 63.81336975114683], [-130.14561462476783, 63.82836151148274], [-130.16003918416828, 63.844010851138925], [-130.135162352952, 63.856143951238515], [-130.25703263718475, 63.876849375071586], [-130.2750244131397, 63.85769653306863], [-130.26573181158415, 63.84554290830862], [-130.3557128900988, 63.82379150392838], [-130.39236450252366, 63.858325957951585], [-130.44475057207586, 63.858554397327836], [-130.42126606692338, 63.87667149820098], [-130.48663330150256, 63.899295806927874], [-130.4850948825212, 63.91210059503097], [-130.53912160401433, 63.929667157584284], [-130.59512329137775, 63.92380142269578], [-130.6382802238393, 63.93600469088076], [-130.64289855959163, 63.9510498042523], [-130.77341921634311, 63.972066953960706], [-130.79586791969567, 63.99080276426866], [-130.77511596755653, 63.99830246033513], [-130.7499847412541, 64.04124450683524], [-130.89347773462737, 64.04279225003634], [-130.89256619884142, 64.09319180602357], [-130.9676666258528, 64.10475158709333], [-130.97349548299425, 64.11418151874423], [-130.95235068375652, 64.12183360255524], [-130.98410034206842, 64.13420867834691], [-130.89485308866213, 64.15349135958962], [-130.91198730403983, 64.1709594723712], [-130.85333251992745, 64.18128967248573], [-130.94703674326095, 64.19382476764765], [-130.95885239029596, 64.20704644395717], [-130.937713885397, 64.21511989592427], [-130.9464534510717, 64.2382098467653], [-131.02423330647272, 64.27348368713628], [-131.0805273588332, 64.27437255887114], [-131.04981994653008, 64.29135131772665], [-131.07743835563295, 64.30259704732042], [-131.03307225236742, 64.32408663664144], [-131.1074735545433, 64.35356717087122], [-131.08325395501683, 64.37220546162214], [-131.1201934813648, 64.38072204666418], [-131.15032034912744, 64.41672559687284], [-131.39266812501558, 64.46330804909209], [-131.4571365947066, 64.44936472196828], [-131.4264053645769, 64.4189996980535], [-131.46008332100925, 64.41390928615097], [-131.44631958000957, 64.39861297626986], [-131.5344347917353, 64.39776664505389], [-131.53027770092888, 64.38135289522415], [-131.85128784087698, 64.38066101082788], [-131.8710686893262, 64.38880844869772], [-131.8046791281509, 64.45423875817704], [-131.69078221833004, 64.48939537582395], [-131.71667480401834, 64.51641845737913], [-131.6892473673138, 64.53147356636651], [-131.79664611680153, 64.54737091097603], [-131.81956481865558, 64.52687835705696], [-131.84454407589732, 64.52908730801897], [-131.87106323246027, 64.54720306426591], [-131.83773814275247, 64.55901317773476], [-131.90992736789744, 64.57373809812933], [-131.90776330608878, 64.58751772028822], [-131.97599792453514, 64.61415862976993], [-132.0387573246283, 64.69890594424689], [-132.15979003781845, 64.70964813231792], [-132.22698974536246, 64.74674224836407], [-132.4125671382866, 64.79808044443095], [-132.4299774179204, 64.78202819841519], [-132.5155792234194, 64.79807281519774], [-132.55659484788774, 64.77545928919679], [-132.63243102997401, 64.82835388194444], [-132.60350280693052, 64.85188201009376], [-132.56635125124313, 64.85511182142719], [-132.55523246960306, 64.87491970322434], [-132.4867401115153, 64.88169097909974], [-132.47877502537358, 64.90408325208165], [-132.4537686725383, 64.90591773778426], [-132.50972694757488, 64.93510541595167], [-132.51932364706306, 64.96345717903793], [-132.34251772666107, 65.03703389421717], [-132.33710289051507, 65.05577093843812], [-132.35217417523012, 65.06282659203174], [-132.33820151565422, 65.07333538691051], [-132.35733111571776, 65.09060673088703], [-132.54412841815238, 65.0943527215914], [-132.56884765656375, 65.12760162416112], [-132.53042602585398, 65.1430435178964], [-132.5169830317719, 65.17393493644663], [-132.5615960946721, 65.19750842880713], [-132.68683694635723, 65.17433089635581], [-132.69575500427717, 65.15827941856827], [-132.73912634157426, 65.16255065870105], [-132.7944488533574, 65.18836975042298], [-132.71423929254507, 65.20860366913399], [-132.78662109475098, 65.23392486570475], [-132.69529723994643, 65.23741912852333], [-132.702152144127, 65.25615555807916], [-132.6738440952197, 65.26139871909757], [-132.66479492175225, 65.27920532240594], [-132.56172180142025, 65.28618621855004], [-132.55767822357436, 65.32854461703286], [-132.52101135285682, 65.37271118184745], [-132.42202758898952, 65.39839172355586], [-132.34474454865313, 65.44072283934644], [-132.31230163506024, 65.47428131147791], [-132.31990051267505, 65.48934936546966], [-132.26826477084634, 65.52824401884776], [-132.26263336527876, 65.55623248453664], [-132.23088073611467, 65.56076812752556], [-132.16550065545698, 65.61746323479113], [-132.21419362748543, 65.64190497073537], [-132.22367850002038, 65.67001303103517], [-132.30250882938415, 65.69132907601397], [-132.27559258168893, 65.70439022727432], [-132.28983139865238, 65.73128788141723], [-132.32446542372162, 65.73362727704753], [-132.36738586466967, 65.7773590087799], [-132.56396484396893, 65.84156036304707], [-132.55120849539162, 65.85211944574328], [-132.56494593573356, 65.87184399266575], [-132.52977433971049, 65.89795736276704], [-132.4197066887995, 65.92318353313996], [-132.40107814429257, 65.93377097516], [-132.42138671929428, 65.93807983404048], [-132.39527893018118, 65.9474105835815], [-132.3353320646062, 65.95199339091273], [-132.32106017855082, 65.95970403609216], [-132.35462951675126, 65.96816253660666], [-132.33085632333854, 65.98728179972288], [-132.42852277948595, 65.99361210613903], [-132.50418090805587, 65.96941375736674], [-132.54663085811217, 65.97743987996051], [-132.52980041415756, 65.99381256122659], [-132.55554143130217, 66.02661863969473], [-132.65394057272349, 66.0220876814434], [-132.76608195970405, 65.98553503791611], [-132.81547546369362, 65.94962310827897], [-132.82264762715002, 65.92534393884125], [-132.88357543889637, 65.90082550093345], [-132.96125793438912, 65.90576171832662], [-132.99687194798108, 65.93025970438237], [-132.9413757330855, 65.95925140353728], [-132.92002868722065, 65.98146820057815], [-132.9394378670809, 65.99674224875318], [-132.91072133501314, 66.0048592679897], [-132.9830780037414, 66.04231262218606], [-133.0589343882515, 66.02241338252291], [-133.13468443196905, 66.0310441990293], [-133.15459452236743, 66.0148311936998], [-133.26047929605082, 66.00097043494131], [-133.23586201652432, 65.98328044942437], [-133.24517957074278, 65.97745487200551], [-133.36116027889625, 65.99057769834657], [-133.37577038895782, 65.98323216452069], [-133.34801381360484, 65.95214648629748], [-133.42988344125362, 65.93735380636883], [-133.51327067951496, 65.96127234772057], [-133.6318198623495, 65.95683152314298], [-133.64459550792122, 65.96868175499002], [-133.62454223662596, 66.00063324035267], [-133.64670056719427, 66.0078686864201], [-133.5630548843747, 66.02872816499692], [-133.621032714239, 66.05929565511829], [-133.70715332162703, 66.05415344257045], [-133.68760941302745, 66.07344833816737], [-133.70355224620215, 66.08618164115911], [-133.656862833606, 66.10606284206314], [-133.66023480670742, 66.11843776230427], [-133.56045679893927, 66.1535507631105], [-133.55040197506597, 66.19857030819884], [-133.59437560987826, 66.21924591061088], [-133.572204590502, 66.24410247777993], [-133.64570617689108, 66.29351043715923], [-133.80254164875993, 66.2919439067246], [-133.8477630609392, 66.31804656913819], [-133.82110573179452, 66.33530643320486], [-133.8233162419179, 66.3535507525106], [-133.77351379239045, 66.3651580809854], [-133.79550170851905, 66.40596008249611], [-133.74964904871408, 66.43852233926575], [-133.76582658800925, 66.45887860411243], [-133.71598815812385, 66.46936035176321], [-133.7084503172978, 66.49182128887765], [-133.72830607172745, 66.50943416244425], [-133.5767411516994, 66.55775838711908], [-133.71823120277358, 66.61714172426399], [-133.78894042921885, 66.62439727845077], [-133.81384277394187, 66.64952850300958], [-133.87501525791984, 66.66049957315877], [-133.87943088539964, 66.68080720138647], [-134.01223754937135, 66.7039566041928], [-133.9698463973933, 66.72149725909152], [-133.86694335874023, 66.71121978793106], [-133.8298339845982, 66.72607421842507], [-133.8429609462144, 66.73100212026165], [-133.8316650380557, 66.7404708858069], [-133.7724304205003, 66.75123596112849], [-133.7936096187596, 66.76612854063681], [-133.76592982495444, 66.78421022863357], [-133.79803466808286, 66.78516387905256], [-133.81259155222818, 66.79902648926812], [-133.79542743186374, 66.8165671861765], [-133.81611633220479, 66.82180786120915], [-133.80549621541044, 66.83523559554094], [-133.8746032715271, 66.85651397725782], [-133.8992614753751, 66.89865875224406], [-134.04618216869238, 66.91048250575426], [-134.07247924795774, 66.92939758309963], [-134.06799316406477, 66.94274902406829], [-134.10331740004312, 66.95328578002575], [-134.0621824081089, 66.9833219852762], [-133.81892395024826, 67.00051879814352], [-130.00000000053873, 67.00000000028513], [-129.9999999990484, 67.74999999982356], [-120.00354766787892, 67.75000000001573], [-120.00306564136383, 67.82629476034036]]], [[[-129.85041809031205, 63.482849121117034], [-129.85017927443548, 63.481404039310384], [-129.84992978786664, 63.48459886153338], [-129.85041809031205, 63.482849121117034]]], [[[-129.85061645476344, 63.49035263059023], [-129.85077714480798, 63.489469972894206], [-129.85104237690263, 63.49074917805839], [-129.85061645476344, 63.49035263059023]]], [[[-129.86663818372284, 63.49947738665263], [-129.86448775485763, 63.49900660323515], [-129.86695868951793, 63.4995386066451], [-129.86663818372284, 63.49947738665263]]], [[[-129.84973144573408, 63.48561477676772], [-129.8497341422056, 63.48561298369813], [-129.85050473394014, 63.48586514373141], [-129.84973144573408, 63.48561477676772]]], [[[-129.8518981923815, 63.488574981398344], [-129.85211064155723, 63.48821558759953], [-129.85157192899996, 63.48883327424138], [-129.8518981923815, 63.488574981398344]]], [[[-129.85290527345572, 63.49260330227954], [-129.85270203625987, 63.49239599965666], [-129.85322359794526, 63.492914393194944], [-129.85290527345572, 63.49260330227954]]], [[[-129.85641479635697, 63.49551391656343], [-129.8557425145153, 63.49483076204749], [-129.8568093346329, 63.495929728907285], [-129.85641479635697, 63.49551391656343]]], [[[-129.85116577267752, 63.48616027836459], [-129.85072475922706, 63.485946452677844], [-129.85138831437575, 63.486338313161795], [-129.85116577267752, 63.48616027836459]]], [[[-129.86096191292037, 63.49811553986743], [-129.859223320087, 63.49744912109776], [-129.86143759127535, 63.498245651403195], [-129.86096191292037, 63.49811553986743]]], [[[-129.8518227741929, 63.49170366985045], [-129.85114482554818, 63.490840120884165], [-129.8515026111631, 63.491153680149964], [-129.8518227741929, 63.49170366985045]]], [[[-129.86797320242562, 63.49980774086627], [-129.86799586853837, 63.499737851297176], [-129.86799796989956, 63.499738254798245], [-129.86797320242562, 63.49980774086627]]], [[[-129.852249146298, 63.487155913636045], [-129.85219496707683, 63.48710140462248], [-129.85224904554073, 63.48715525143804], [-129.852249146298, 63.487155913636045]]], [[[-129.84995897516978, 63.48094499624281], [-129.8498823747293, 63.480911483454534], [-129.84995871554395, 63.48094451527684], [-129.84995897516978, 63.48094499624281]]]]}}, {"type": "Feature", "properties": {"NAME": "Thebacha"}, "geometry": {"type": "Polygon", "coordinates": [[[-109.6666641241081, 60.99999999931438], [-109.66666412363573, 59.999500273975436], [-115.00000437654036, 59.99815726181756], [-115.00000000088302, 60.29986190848901], [-114.27283477667157, 60.29872894259827], [-114.17807769687938, 60.3421630854205], [-114.0742492671216, 60.349399566984765], [-113.95799255297885, 60.430824279612175], [-113.86218261718089, 60.44326019300847], [-113.79502868563324, 60.49078369129678], [-113.69675445503685, 60.51180648843997], [-113.6657104490781, 60.54983138992919], [-112.91027832059379, 60.41722106934001], [-110.33333587619315, 60.999999999984524], [-109.6666641241081, 60.99999999931438]]]}}, {"type": "Feature", "properties": {"NAME": "Tu Nedhé-Wiilideh"}, "geometry": {"type": "MultiPolygon", "coordinates": [[[[-110.66783905050961, 65.50032806449198], [-109.33440399273297, 64.83363342195963], [-107.50196130549374, 64.72008993462234], [-105.64689821478123, 64.58087424697068], [-103.81222893297651, 64.41858514780962], [-102.00059509146661, 64.23366546625239], [-102.00047302146785, 59.99922561566854], [-109.66666412363573, 59.999500273975436], [-109.6666641241081, 60.99999999931438], [-110.33333587619315, 60.999999999984524], [-112.91027832059379, 60.41722106934001], [-113.6657104490781, 60.54983138992919], [-113.69675445503685, 60.51180648843997], [-113.79502868563324, 60.49078369129678], [-113.86218261718089, 60.44326019300847], [-113.95799255297885, 60.430824279612175], [-114.0742492671216, 60.349399566984765], [-114.17807769687938, 60.3421630854205], [-114.27283477667157, 60.29872894259827], [-115.08843231127979, 60.29999923734636], [-115.07149505637757, 60.32028579677583], [-115.079566955956, 60.329570769731504], [-115.0582351679191, 60.3410720831617], [-115.1026382444389, 60.34247589128817], [-115.0907974247733, 60.34658050522623], [-115.10880279558961, 60.35300064104888], [-115.10872650161633, 60.37036895658882], [-115.24150848344117, 60.3526840212594], [-115.346916198774, 60.37979888860657], [-115.32897186347931, 60.400753020942474], [-115.19976043665011, 60.440876006716856], [-115.14733123733126, 60.47290039081488], [-115.13683318986956, 60.49581909196976], [-115.01972198489185, 60.53409957814123], [-115.00257873611764, 60.555793762339164], [-115.0165481569468, 60.57402801482633], [-114.900077818709, 60.570163726814386], [-114.85136413597867, 60.59499740601187], [-114.84619903560399, 60.60403060862265], [-114.90040588301794, 60.614620208870456], [-114.89604186924505, 60.62753677384828], [-114.9493637088353, 60.6480712893932], [-114.9438018804647, 60.683372498390085], [-114.90643310638517, 60.71365356451963], [-114.96088409454013, 60.762962342390296], [-114.93971252508142, 60.77959823628418], [-114.97702789245376, 60.83709716833153], [-114.96112823490445, 60.84255981426052], [-115.03976440341921, 60.88237381056978], [-114.51667022753546, 61.333332062199915], [-114.51667022651736, 62.249999999767766], [-112.50000000026914, 62.24999999950673], [-112.50000000000307, 65.50031280500033], [-110.66783905050961, 65.50032806449198]]], [[[-114.31295949311627, 62.410542773557175], [-114.28913030966542, 62.41640499724342], [-114.28896497452273, 62.41605258274754], [-114.31295949311627, 62.410542773557175]]], [[[-114.34249934595279, 62.47449348216925], [-114.33316366887416, 62.47504205315722], [-114.34023373953046, 62.47109570176288], [-114.34249934595279, 62.47449348216925]]], [[[-114.3214417241707, 62.41497337086903], [-114.3199113315701, 62.415865317733974], [-114.31930732203394, 62.41527265820506], [-114.3214417241707, 62.41497337086903]]], [[[-114.31799714298728, 62.41620496754294], [-114.31632148693514, 62.4155776909586], [-114.3183867130926, 62.41568001983486], [-114.31799714298728, 62.41620496754294]]], [[[-114.31476467788997, 62.41685903774941], [-114.31589350825863, 62.416181813614116], [-114.31620215122416, 62.416537998955505], [-114.31476467788997, 62.41685903774941]]], [[[-114.29933972889046, 62.41011667811382], [-114.30070330946445, 62.41020725712515], [-114.29928199640561, 62.41045426136312], [-114.29933972889046, 62.41011667811382]]], [[[-114.29630956962167, 62.41009338308584], [-114.29756354185183, 62.409948839941194], [-114.29611157606601, 62.41031939667271], [-114.29630956962167, 62.41009338308584]]], [[[-114.29668077402297, 62.4093676507607], [-114.29745376579835, 62.40932836205389], [-114.29652825820939, 62.40945411095065], [-114.29668077402297, 62.4093676507607]]], [[[-114.31582820533737, 62.41574780662675], [-114.31595843446442, 62.415953302967594], [-114.31557729866716, 62.4160780629699], [-114.31582820533737, 62.41574780662675]]], [[[-114.31248755873877, 62.414813179373624], [-114.31173049388289, 62.41466948331396], [-114.31259102971335, 62.41478006105121], [-114.31248755873877, 62.414813179373624]]], [[[-114.31633586720268, 62.41509320409207], [-114.31682504800926, 62.41510428504559], [-114.31633877264315, 62.41513351381262], [-114.31633586720268, 62.41509320409207]]], [[[-114.30034196442082, 62.408741301271384], [-114.30033127807945, 62.40859584407144], [-114.30060824654404, 62.40859917725263], [-114.30034196442082, 62.408741301271384]]], [[[-114.31204112941009, 62.4103749995052], [-114.31197347128727, 62.41053032031437], [-114.31178314107058, 62.41048953186427], [-114.31204112941009, 62.4103749995052]]], [[[-114.31259425152815, 62.4117765489539], [-114.31287940634155, 62.411782798195524], [-114.31260739748538, 62.41184326981457], [-114.31259425152815, 62.4117765489539]]], [[[-114.289961878396, 62.414695239778275], [-114.28970191635013, 62.4146598126687], [-114.28996429479665, 62.41466344008702], [-114.289961878396, 62.414695239778275]]], [[[-114.31451537534143, 62.41085734757583], [-114.31453543567007, 62.410766950624904], [-114.31473126338939, 62.410833561121784], [-114.31451537534143, 62.41085734757583]]], [[[-114.31844462152414, 62.416143050304115], [-114.31870877506738, 62.41610485719773], [-114.3184319266024, 62.41618006192871], [-114.31844462152414, 62.416143050304115]]], [[[-114.31506739834376, 62.41147475770807], [-114.3151317719881, 62.411556620331424], [-114.3150060696942, 62.411545522729796], [-114.31506739834376, 62.41147475770807]]], [[[-114.28907062667406, 62.416439298346134], [-114.28913021114076, 62.41640506615315], [-114.28911946927862, 62.41641253978785], [-114.28907062667406, 62.416439298346134]]]]}}, {"type": "Feature", "properties": {"NAME": "Yellowknife Centre"}, "geometry": {"type": "Polygon", "coordinates": [[[-114.37371063232355, 62.457092285395966], [-114.3718566894053, 62.44414901777663], [-114.38916778449806, 62.45058441059941], [-114.37371063232355, 62.457092285395966]]]}}, {"type": "Feature", "properties": {"NAME": "Yellowknife North"}, "geometry": {"type": "Polygon", "coordinates": [[[-112.49999999996928, 62.919052124219206], [-112.50000000026914, 62.24999999950673], [-114.33333587664106, 62.249999999291695], [-114.33333587668113, 62.4555549620321], [-114.43330383328717, 62.471244811760165], [-114.43333435148824, 62.91666793833369], [-112.49999999996928, 62.919052124219206]], [[-114.3065570650634, 62.42140628442415], [-114.30475119233559, 62.40878836130848], [-114.28896497452273, 62.41605258274754], [-114.3065570650634, 62.42140628442415]], [[-114.33331915513094, 62.480070816757056], [-114.34023373953046, 62.47109570176288], [-114.33164294802505, 62.47909499176514], [-114.33331915513094, 62.480070816757056]], [[-114.3214417241707, 62.41497337086903], [-114.3199113315701, 62.415865317733974], [-114.32193496703853, 62.41602281826786], [-114.3214417241707, 62.41497337086903]], [[-114.31690280299233, 62.41639015125973], [-114.31804013808734, 62.415309874640485], [-114.31632148693514, 62.4155776909586], [-114.31690280299233, 62.41639015125973]], [[-114.31606990484518, 62.41664061285798], [-114.31513155335695, 62.41633704531783], [-114.31476467788997, 62.41685903774941], [-114.31606990484518, 62.41664061285798]], [[-114.30069511483012, 62.4102247837862], [-114.29936850069122, 62.41010466791814], [-114.29924189347707, 62.41036741397294], [-114.30069511483012, 62.4102247837862]], [[-114.29687291900389, 62.4102448319568], [-114.29677406078491, 62.40998248614506], [-114.29611157606601, 62.41031939667271], [-114.29687291900389, 62.4102448319568]], [[-114.29690981288263, 62.40952674603307], [-114.29680158610519, 62.40934010596544], [-114.29652825820939, 62.40945411095065], [-114.29690981288263, 62.40952674603307]], [[-114.31579847650262, 62.416042308680794], [-114.31582820533737, 62.41574780662675], [-114.31557729866716, 62.4160780629699], [-114.31579847650262, 62.416042308680794]], [[-114.31182285034522, 62.414730624637706], [-114.31259102971335, 62.41478006105121], [-114.31173049388289, 62.41466948331396], [-114.31182285034522, 62.414730624637706]], [[-114.31653121098496, 62.41522784274775], [-114.31682504800926, 62.41510428504559], [-114.31633586720268, 62.41509320409207], [-114.31653121098496, 62.41522784274775]], [[-114.3002039781491, 62.408734243886684], [-114.30053257234071, 62.408673622054096], [-114.30060824654404, 62.40859917725263], [-114.3002039781491, 62.408734243886684]], [[-114.3117847737552, 62.4104632539359], [-114.31200907132987, 62.41051512438161], [-114.31235798581332, 62.41031511958084], [-114.3117847737552, 62.4104632539359]], [[-114.31259425152815, 62.4117765489539], [-114.31287940634155, 62.411782798195524], [-114.31291227064641, 62.41171762185608], [-114.31259425152815, 62.4117765489539]], [[-114.28958306936944, 62.41472181032243], [-114.289961878396, 62.414695239778275], [-114.28996429479665, 62.41466344008702], [-114.28958306936944, 62.41472181032243]], [[-114.31440105755357, 62.41083445139877], [-114.31458795312773, 62.4108356019624], [-114.31473126338939, 62.410833561121784], [-114.31440105755357, 62.41083445139877]], [[-114.31844462152414, 62.416143050304115], [-114.31866179668854, 62.41614392480569], [-114.31870680736726, 62.41608693516062], [-114.31844462152414, 62.416143050304115]], [[-114.3150060696942, 62.411545522729796], [-114.31514328632062, 62.41153948540281], [-114.31513716910469, 62.41145921083906], [-114.3150060696942, 62.411545522729796]], [[-114.28908289165975, 62.41643344060448], [-114.28913021114076, 62.41640506615315], [-114.28907062667406, 62.416439298346134], [-114.28908289165975, 62.41643344060448]]]}}, {"type": "Feature", "properties": {"NAME": "Yellowknife South"}, "geometry": {"type": "Polygon", "coordinates": [[[-114.47278594903419, 62.47315979059023], [-114.41243259547903, 62.43521060680909], [-114.51667022703104, 62.408332824221226], [-114.51667022665912, 62.46281051605713], [-114.47278594903419, 62.47315979059023]]]}}]}