{"type": "FeatureCollection", "features": [{"type": "Feature", "properties": {"NAME": "Yukon"}, "geometry": {"type": "Polygon", "coordinates": [[[-123.82925221240193, 60.001006460606014], [-139.05020241399126, 59.9997051103765], [-139.20043112052412, 60.08843972194384], [-139.07599570122528, 60.350131676585704], [-139.6933203796061, 60.33407917053258], [-139.98073488651937, 60.18094189613492], [-140.4564584099982, 60.30446924679241], [-140.51923298988646, 60.21698703685005], [-141.00002236662695, 60.29738188973737], [-141.00089140856556, 69.68951588278108], [-140.29863998335193, 69.63888916458541], [-139.45817964806213, 69.6778437569047], [-139.0584940149927, 69.663568829502], [-138.8044881126216, 69.60246745942042], [-138.77460501917813, 69.5659831164363], [-138.86051861807326, 69.47580842779337], [-138.7970170448601, 69.39445723708656], [-138.25165148563377, 69.29827748632806], [-138.07982382942748, 69.16317014827503], [-137.41866144533435, 69.02588357655605], [-137.17212637124845, 69.01250890258854], [-137.03391725109773, 68.96026967361661], [-136.49602253874446, 68.92806086351564], [-136.44838004914882, 68.89378480584752], [-136.44837767964785, 67.70671488409076], [-136.41528056746108, 67.69323286693759], [-136.4295633807684, 67.65892410456549], [-136.26795741449223, 67.64111728612824], [-136.18249262759602, 67.58198888632181], [-136.15374500834668, 67.51148598250448], [-136.1996279992015, 67.40968691318119], [-136.11626917420003, 67.37859721270894], [-136.14370491911856, 67.3626897192192], [-136.08044159445797, 67.30414239071803], [-136.1290563131372, 67.22995377311499], [-136.2211279424336, 67.17463299158689], [-136.1810273184103, 67.15012678844352], [-136.20931710723588, 67.11560444765635], [-136.19938353092527, 67.05959718904444], [-136.14344471655303, 67.00000367988814], [-133.8130916902467, 67.00000445117959], [-134.10064380484104, 66.95867583103964], [-133.88128348343278, 66.9009511687418], [-133.81412949387854, 66.83253923805088], [-133.74824161955252, 66.8146859200545], [-133.75843468443108, 66.77199173382232], [-133.83039510545052, 66.73040378240553], [-133.73533262115396, 66.68743562110646], [-133.77344922157073, 66.65742161022864], [-133.5587579972687, 66.56643387282423], [-133.67536503777544, 66.52956039897344], [-133.59768273707746, 66.44662153440403], [-133.745830138868, 66.4345053463503], [-133.75365829537785, 66.38106971238324], [-133.81740950470652, 66.32662616693672], [-133.5511437557751, 66.28200975971927], [-133.53886012465694, 66.16822422032595], [-133.64875379998844, 66.1233562598427], [-133.67899674632648, 66.07167482519183], [-133.59556115719064, 66.06162642024913], [-133.60093250426752, 65.96511450304295], [-133.42875238579632, 65.9397012746665], [-133.10317584273486, 66.036251293786], [-132.94832970106134, 66.03055197538784], [-132.8931995636317, 66.0136001538233], [-132.97976272795873, 65.9272049334955], [-132.92371725344233, 65.91252551044933], [-132.79677914503762, 65.92424457816008], [-132.77999434993936, 65.96876980343511], [-132.60689870425375, 66.03008705340402], [-132.53199297109174, 66.02367891719604], [-132.47631412465947, 65.97760451911257], [-132.31562338646822, 65.9943048912814], [-132.3145861097368, 65.95232844753424], [-132.5003007273783, 65.91187781557623], [-132.56156444208008, 65.8517348570257], [-132.36800725212393, 65.78418352011978], [-132.1552077564483, 65.60007965068549], [-132.301004970817, 65.49514404245977], [-132.31048053203983, 65.44113565680252], [-132.5014752625843, 65.38027575049676], [-132.54239902438715, 65.29372854956434], [-132.7629342559901, 65.23764450893067], [-132.6966044899949, 65.21007179510035], [-132.77598053885674, 65.19697275952265], [-132.729090331355, 65.16992613498316], [-132.53830949362262, 65.19849107876558], [-132.4997810531597, 65.16914811009737], [-132.55275950661667, 65.12494306732525], [-132.5250345950179, 65.09655486290727], [-132.31769787526176, 65.07557383177078], [-132.41759704920213, 64.9855692529762], [-132.49608806080016, 64.96493249486454], [-132.4498086879281, 64.91303641650956], [-132.4724983110781, 64.88149702229641], [-132.61686164301807, 64.83318797642781], [-132.54364955462202, 64.7771494201771], [-132.33936524415944, 64.78808267353848], [-132.15845679627978, 64.71184973862533], [-132.03888924135083, 64.70303764562536], [-131.97562572895103, 64.61205785604443], [-131.84963397184427, 64.53597753590442], [-131.69179674210818, 64.52925519858712], [-131.6915835223036, 64.49301554533363], [-131.83565734267182, 64.42992898931227], [-131.85695765279218, 64.3811004758632], [-131.61283241080474, 64.36723074234727], [-131.46070256547077, 64.39908270050836], [-131.40787723508785, 64.45663903444141], [-131.1551452556812, 64.4170736182514], [-131.08596133903384, 64.36580388372859], [-131.11872279092472, 64.35390140944327], [-131.04778404685737, 64.3284191679208], [-131.0978029547946, 64.27882850077052], [-130.99106720500248, 64.25797007414882], [-130.95052465854764, 64.21475665246919], [-130.96390628149524, 64.19099842839508], [-130.87551263686348, 64.17904386204785], [-130.99126549677098, 64.12984935685233], [-130.91440664299643, 64.10487791764692], [-130.9014373886557, 64.04574321539691], [-130.74930719484712, 64.04378182109221], [-130.79558699942524, 64.00000496581806], [-130.75824809063602, 63.96944873052232], [-130.52930597570207, 63.92919664288241], [-130.3531279391544, 63.82560853822887], [-130.24576695976037, 63.87284578988269], [-130.1396873062041, 63.861371128216746], [-130.12281092073115, 63.758561350929504], [-130.21894175720652, 63.753503114780074], [-130.22776133023973, 63.72358788793054], [-130.33680052619556, 63.69496636336007], [-130.25141172549516, 63.65670890043183], [-130.09810768554107, 63.69228458492097], [-130.13271444360262, 63.65968036993361], [-130.0835961973341, 63.61230954067031], [-130.0015495423966, 63.61520512532399], [-129.99755148765723, 63.57574981939354], [-129.92243802783773, 63.558441645994414], [-129.80001141274604, 63.45495332741052], [-129.9065630404385, 63.466298329645895], [-129.93973626071062, 63.42358916246062], [-129.89623347085757, 63.37502022820956], [-130.14971177493655, 63.30802618107408], [-130.18238060922482, 63.24846340426018], [-130.05552001076856, 63.253262732515566], [-129.99649862098062, 63.17894446623727], [-129.94127633619323, 63.2010892363701], [-129.89196055396354, 63.18296899128813], [-129.83803581821996, 63.1141023266075], [-129.85237911894527, 63.085831883043], [-129.62097984685417, 63.07407120511912], [-129.6065746272146, 63.036069100617965], [-129.7381362623568, 62.915555257687046], [-129.7038952302085, 62.88478965048811], [-129.77695478741737, 62.86730673678771], [-129.6308663236384, 62.7582597100535], [-129.65055009644172, 62.744946897440045], [-129.60042528314554, 62.69608045496263], [-129.51316065000225, 62.66880530292571], [-129.53682662443873, 62.64904498157246], [-129.48865497534095, 62.62431837036508], [-129.54910961154422, 62.56669363954705], [-129.43295986579813, 62.5860950103951], [-129.1875688051496, 62.48629500756997], [-129.28443062868035, 62.452481595120666], [-129.3117742479033, 62.41281232989406], [-129.22089325318632, 62.37408565618845], [-129.3027267164776, 62.32988453401997], [-129.29950606575687, 62.27207689350635], [-129.19017724181955, 62.218896297846015], [-129.2769230662396, 62.15181108485081], [-129.14388250485274, 62.11037556947396], [-128.99082153488357, 62.135426814800546], [-128.77757945220685, 62.05196528214855], [-128.69255809587236, 62.12744255237855], [-128.54640870865666, 62.11806208912175], [-128.27358197053292, 61.94086176684626], [-128.2176433306032, 61.840409409585476], [-128.06334581206033, 61.835801874187915], [-128.0051944362337, 61.76738103400702], [-127.9998690493281, 61.70689515646037], [-127.81986088514407, 61.61264583283488], [-127.53840465243499, 61.50437695803321], [-127.30418229249729, 61.51051864240879], [-127.15179318476783, 61.466256827543], [-127.1340850410708, 61.38737240205323], [-127.06358977667108, 61.355828734254324], [-127.00805456015341, 61.1985716465024], [-127.05292299484876, 61.153321924803144], [-127.03323196577476, 61.1106201108106], [-127.11376032614889, 61.06635048561314], [-127.07144008649541, 61.03509655497195], [-126.9412217043457, 61.0558604376115], [-126.95175784761797, 61.01924671031184], [-126.90321113481305, 60.94971248233481], [-126.92129332760814, 60.85663733704818], [-126.87627217429117, 60.840982196234926], [-126.89059225823429, 60.78576072408574], [-126.84199374463834, 60.75966453310059], [-126.75155431792363, 60.782293020722236], [-126.67243766223748, 60.74293317468929], [-126.5246637421157, 60.812318432550285], [-126.30685968938485, 60.77630763056051], [-126.2285751731766, 60.80924386508674], [-126.24162129410267, 60.85286119692073], [-126.11533115882855, 60.86274491202985], [-126.10017215628753, 60.81202499857281], [-126.00361429551235, 60.80032529491117], [-125.97961216635811, 60.853761260125296], [-125.88178818301337, 60.893407822634856], [-125.71059207433497, 60.82322514761319], [-125.31741840808643, 60.782819859658204], [-125.18713950632886, 60.85025191740084], [-124.87186950372372, 60.85509300409661], [-124.87689037531207, 60.91566637860591], [-124.816732334978, 60.97327974673152], [-124.6835306258789, 60.94566932491372], [-124.6124775096606, 60.96167563776846], [-124.53825150972648, 60.81479097126277], [-124.4901477568179, 60.78707319624432], [-124.62759902295045, 60.70569771102096], [-124.61009015485097, 60.65613390871466], [-124.43907651770789, 60.53637512801597], [-124.4302725686039, 60.46706963081654], [-124.22542267864804, 60.45584316266273], [-124.2308783701046, 60.370752268133465], [-124.11794805365783, 60.20970749749443], [-123.82925221240193, 60.001006460606014]]]}}]}